X,Y,Name,description,ADDRESSBLOCKHOUSENUMBER,ADDRESSBUILDINGNAME,ADDRESSPOSTALCODE,ADDRESSSTREETNAME,ADDRESSTYPE,DESCRIPTION2,HYPERLINK,LANDXADDRESSPOINT,LANDYADDRESSPOINT,NAME2,PHOTOURL,ADDRESSFLOORNUMBER,INC_CRC,FMEL_UPD_D,ADDRESSUNITNUMBER,Field_10,Field_11,Field_12,Field_13,Field_14,Field_15,Field_8,Field_9,Field_6,Field_7,Field_4,Field_5,Field_2,Field_3,Field_1
103.841428124035,1.38151727157775,Yio Chu Kang CC,Community Club,50,,569163,Ang Mo Kio Street 61,A,,https://www.onepa.sg/cc/yio-chu-kang-cc,0,0,,,,2CBC381536E979FB,20190624164320,,,,,,,,,,,,,,,,
103.819753130978,1.27593101840053,Radin Mas CC,Community Club,51,,98917,Telok Blangah Crescent,A,,https://www.onepa.sg/cc/radin-mas-cc,0,0,,,,95CFCA955C6F89D1,20190624164320,,,,,,,,,,,,,,,,
103.901775024974,1.39362831366603,Rivervale CC,Community Centre,193,,540193,Rivervale Drive,A,,https://www.onepa.sg/cc/rivervale-cc,0,0,,,1,4E105876D4CC3594,20190624164320,787,,,,,,,,,,,,,,,
103.828783247126,1.4516815276281,Sembawang CC,Community Club,2125,,758528,Sembawang Road,A,,https://www.onepa.sg/cc/sembawang-cc,0,0,,,,B5BE5769F23904C7,20190624164320,,,,,,,,,,,,,,,,
103.893906102774,1.39278558587024,Sengkang CC,Community Club,2,Sengkang Community Hub,545025,Sengkang Square,A,,https://www.onepa.sg/cc/sengkang-cc,0,0,,,1,EEB6F7D18DB29C5C,20190624164320,1,,,,,,,,,,,,,,,
103.76465958417,1.38158679008906,Senja-Cashew CC,Community Club,101,Opposite Bukit Panjang Plaza,679910,Bukit Panjang Road,A,,https://www.onepa.sg/cc/senja-cashew-cc,0,0,,,,BE8046935009DF59,20190624164320,,,,,,,,,,,,,,,,
103.9433365555,1.32163185812187,Siglap CC,Community Centre,300,,469299,Bedok South Avenue 3,A,,https://www.onepa.sg/cc/siglap-cc,0,0,,,,EF29759AD1E65BEE,20190624164320,,,,,,,,,,,,,,,,
103.698726261357,1.34868981937877,Gek Poh Ville CC,Community Club,1,,649149,Jurong West Street 74,A,,https://www.onepa.sg/cc/gek-poh-ville-cc,0,0,,,,664E82291A321A34,20190624164320,,,,,,,,,,,,,,,,
103.896747969296,1.31646238246058,Geylang Serai CC,Community Club,1,,408528,Engku Aman Turn,A,,https://www.onepa.sg/cc/geylang-serai-cc,0,0,,,1,FEFCE5E19D0918FF,20190624164320,1,,,,,,,,,,,,,,,
103.872387855134,1.3156911078441,Geylang West CC,Community Club,1205,,387311,Upper Boon Keng Road,A,,https://www.onepa.sg/cc/geylang-west-cc,0,0,,,,866A2FF99F4153A7,20190624164320,,,,,,,,,,,,,,,,
103.823312305669,1.28601171119595,Henderson CC,Community Club,500,,159682,Bukit Merah View,A,,https://www.onepa.sg/cc/henderson-cc,0,0,,,,CBAB9EF41C1DBC39,20190624164320,,,,,,,,,,,,,,,,
103.764266389757,1.36196724402422,Hillview CC,Community Club,1,,667970,Hillview Rise,A,,https://www.onepa.sg/cc/hillview-cc,0,0,,,1,4D37843D72325C7E,20190624164320,1,,,,,,,,,,,,,,,
103.749456841487,1.35905888839505,Hong Kah North CC,Community Club,30,,659440,Bukit Batok Street 31,A,,https://www.onepa.sg/cc/hong-kah-north-cc,0,0,,,,44A339571CC726A2,20190624164320,,,,,,,,,,,,,,,,
103.892622240184,1.36475743233025,Hougang CC,Community Club,35,,538840,Hougang Avenue 3,A,,https://www.onepa.sg/cc/hougang-cc,0,0,,,,B1DBF1389E87E6B5,20190624164320,,,,,,,,,,,,,,,,
103.873890977742,1.37360010030912,Hwi Yoh CC,Community Centre,535,,550535,Serangoon North Avenue 4,A,,https://www.onepa.sg/cc/hwi-yoh-cc,0,0,,,1,9AD8CFC8B0A170F5,20190624164320,179,,,,,,,,,,,,,,,
103.861786572317,1.30800417111748,Jalan Besar CC,Community Club,69,,208737,Jellicoe Road,A,,https://www.onepa.sg/cc/jalan-besar-cc,0,0,,,,F3B68C02ECF8F439,20190624164320,,,,,,,,,,,,,,,,
103.904168869493,1.30745720639376,Joo Chiat CC,Community Club,405,,427633,Joo Chiat Road,A,,https://www.onepa.sg/cc/joo-chiat-cc,0,0,,,,0B8AD1E2E9580347,20190624164320,,,,,,,,,,,,,,,,
103.725341556777,1.35055603170356,Jurong Green CC,Community Club,6,,649520,Jurong West Avenue 1,A,,https://www.onepa.sg/cc/jurong-green-cc,0,0,,,,1C082F2520DC234F,20190624164320,,,,,,,,,,,,,,,,
103.717011848542,1.34942130837618,Jurong Spring CC (Till 3Q 2020),Community Club,535,,640535,Jurong West Street 52,A,,https://www.onepa.sg/cc/jurong-spring-cc,0,0,,,1,E8C198C63D390D46,20190624164320,485,,,,,,,,,,,,,,,
103.718150452079,1.34833015897497,Jurong Spring CC (U/C),Community Club,8,,649296,Jurong West Street 52,A,,https://www.onepa.sg/cc/jurong-spring-cc,0,0,,,,2D8ECAF881D81ED1,20190624164320,,,,,,,,,,,,,,,,
103.92684860223,1.33335815008245,Kaki Bukit CC,Community Centre,670,,469627,Bedok North Street 3,A,,https://www.onepa.sg/cc/kaki-bukit-cc,0,0,,,,4FC2FCFFD16583F6,20190624164320,,,,,,,,,,,,,,,,
103.862373282501,1.31780290497647,Kallang CC,Community Club,45,,339771,Boon Keng Road,A,,https://www.onepa.sg/cc/kallang-cc,0,0,,,,2B16AB135D979780,20190624164320,,,,,,,,,,,,,,,,
103.931663529776,1.32699716401989,Kampong Chai Chee CC,Community Centre,11,,469662,Bedok North Street 1,A,,https://www.onepa.sg/cc/kampong-chai-chee-cc,0,0,,,,9811D934D1826726,20190624164320,,,,,,,,,,,,,,,,
103.863597858268,1.30279521839327,Kampong Glam CC,Community Club,385,,199581,Beach Road,A,,https://www.onepa.sg/cc/kampong-glam-cc,0,0,,,,BB761485C277755E,20190624164320,,,,,,,,,,,,,,,,
103.912698650056,1.32315519886988,Kampong Kembangan CC,Community Club,5,,417408,Lengkong Tiga,A,,https://www.onepa.sg/cc/kampong-kembangan-cc,0,0,,,,60E6551142851D3C,20190624164320,,,,,,,,,,,,,,,,
103.900750126977,1.31784643130184,Kampong Ubi CC,Community Centre,10,,409075,Jalan Ubi,A,,https://www.onepa.sg/cc/kampong-ubi-cc,0,0,,,,DC9F1FCBF93425D1,20190624164320,,,,,,,,,,,,,,,,
103.884748931359,1.30059117423726,Katong CC,Community Centre,51,,438178,Kampong Arang Road,A,,https://www.onepa.sg/cc/katong-cc,0,0,,,,FEF3356946C7F14D,20190624164320,,,,,,,,,,,,,,,,
103.744923812722,1.38406515926541,Keat Hong CC,Community Club,2,,689687,Choa Chu Kang Loop,A,,https://www.onepa.sg/cc/keat-hong-cc,0,0,,,1,238C3F29E68E0E8E,20190624164320,1,,,,,,,,,,,,,,,
103.77055880601,1.37645074924612,Bukit Panjang CC,Community Club,8,,678295,Pending Road,A,,https://www.onepa.sg/cc/bukit-panjang-cc,0,0,,,,68DCE010D57E45D6,20190624164320,,,,,,,,,,,,,,,,
103.771609614654,1.34050085979547,Bukit Timah CC,Community Club,20,,596569,Toh Yi Drive,A,,https://www.onepa.sg/cc/bukit-timah-cc,0,0,,,,443EC19B6B3EE2CD,20190624164320,,,,,,,,,,,,,,,,
103.792547493969,1.30918210561682,Buona Vista CC,Community Club,36,,270036,Holland Drive,A,,https://www.onepa.sg/cc/buona-vista-cc,0,0,,,1,0F94EDBF0D4385F9,20190624164320,1,,,,,,,,,,,,,,,
103.838882714388,1.31038767017859,Cairnhill CC,Community Club,1,,229944,Anthony Road,A,,https://www.onepa.sg/cc/cairnhill-cc,0,0,,,,4AA7BC731FB44A68,20190624164320,,,,,,,,,,,,,,,,
103.819473739147,1.44504412683036,Canberra CC,Community Club,2,,757632,Sembawang Crescent,A,,https://www.onepa.sg/cc/canberra-cc,0,0,,,,E83B5D1A727B5F15,20190624164320,,,,,,,,,,,,,,,,
103.955110948119,1.34493553057398,Changi Simei CC,Community Club,10,,529915,Simei Street 2,A,,https://www.onepa.sg/cc/changi-simei-cc,0,0,,,,1AB4A5D9B2BFF171,20190624164320,,,,,,,,,,,,,,,,
103.849569976256,1.37178044674321,Cheng San CC,Community Club,6,,569205,Ang Mo Kio Street 53,A,,https://www.onepa.sg/cc/cheng-san-cc,0,0,,,,39458CBA393A8A77,20190624164320,,,,,,,,,,,,,,,,
103.829234874916,1.43083237048447,Chong Pang CC,Community Club,21,,768677,Yishun Ring Road,A,,https://www.onepa.sg/cc/chong-pang-cc,0,0,,,,60A8EEFF2449850E,20190624164320,,,,,,,,,,,,,,,,
103.751903886481,1.38115529003064,Chua Chu Kang CC,Community Club,35,,688892,Teck Whye Avenue,A,,https://www.onepa.sg/cc/chua-chu-kang-cc,0,0,,,,48BFE5445F81622C,20190624164320,,,,,,,,,,,,,,,,
103.882894179307,1.37514897825787,Ci Yuan CC,Community Club,51,,538776,Hougang Avenue 9,A,,https://www.onepa.sg/cc/ci-yuan-cc,0,0,,,1,765242D9268C75C8,20190624164320,1,,,,,,,,,,,,,,,
103.768153686645,1.31881518814763,Clementi CC,Community Centre,220,,129880,Clementi Avenue 4,A,,https://www.onepa.sg/cc/clementi-cc,0,0,,,,94D669DC01D62EFB,20190624164320,,,,,,,,,,,,,,,,
103.783271666717,1.302529944662,Dover CC,Community Centre,1,,130001,Dover Road,A,,https://www.onepa.sg/cc/dover-cc,0,0,,,1,BF90A6261F75789D,20190624164320,300,,,,,,,,,,,,,,,
103.91514355252,1.33255277788544,Eunos CC,Community Club,180,,479220,Bedok Reservoir Road,A,,https://www.onepa.sg/cc/eunos-cc,0,0,,,,E824C5B54804D0AA,20190624164320,,,,,,,,,,,,,,,,
103.936613618799,1.33070761805554,Fengshan CC (U/C),Community Club,20,,469644,Bedok North Street 2,A,,https://www.onepa.sg/cc/fengshan-cc,0,0,,,,29B402AC74DCC80A,20190624164320,,,,,,,,,,,,,,,,
103.939995692517,1.33049879236922,Fengshan CC (Till 3Q 2020),Community Club,187B,52,462187,Bedok North Street 4,A,,https://www.onepa.sg/cc/fengshan-cc,0,0,,,,2E0C7575E249FB4D,20190624164320,1,,,,,,,,,,,,,,,
103.771520846382,1.3868068291971,Zhenghua CC,Community Club,1,,677738,Segar Road,A,,https://www.onepa.sg/cc/zhenghua-cc,0,0,,,,EF0DB118ADF02E75,20190624164320,,,,,,,,,,,,,,,,
103.774811855067,1.42952981919595,Fuchun CC,Community Club,1,,738581,Woodlands Street 31,A,,https://www.onepa.sg/cc/fuchun-cc,0,0,,,1,9AC8A3383AC84DDA,20190603112619,2,,,,,,,,,,,,,,,
103.851373846882,1.31305864843728,Pek Kio CC,Community Centre,21,,219458,Gloucester Road,A,,https://www.onepa.sg/cc/pek-kio-cc,0,0,,,1,E185B3EFD21DDA09,20190603112619,1,,,,,,,,,,,,,,,
103.773615184767,1.44065677654285,Marsiling CC,Community Club,100,,739980,Admiralty Road,A,,https://www.onepa.sg/cc/marsiling-cc,0,0,,,,27CDFAB90F5763DD,20190624164320,,,,,,,,,,,,,,,,
103.884678208212,1.31004799754599,Mountbatten CC (Till further notice),Community Club,54,,390054,Cassia Crescent,A,,https://www.onepa.sg/cc/mountbatten-cc,0,0,,,1,3A53FEBDD07B2AA0,20190624164320,137,,,,,,,,,,,,,,,
103.886948103421,1.31008169425085,Mountbatten CC (U/C),Community Club,35,,399479,Jalan Satu,A,,https://www.onepa.sg/cc/mountbatten-cc,0,0,,,,9A25173772F072EE,20190624164320,,,,,,,,,,,,,,,,
103.692320231917,1.3423640283979,Nanyang CC,Community Club,60,,649040,Jurong West Street 91,A,,https://www.onepa.sg/cc/nanyang-cc,0,0,,,,B6F5488A70D3D55B,20190624164320,,,,,,,,,,,,,,,,
103.836142034231,1.4279999555829,Nee Soon Central CC,Community Centre,1,,768019,Northpoint Drive,A,,https://www.onepa.sg/cc/nee-soon-central-cc,0,0,,,1,025D13A7392B1D09,20190624164320,201,,,,,,,,,,,,,,,
103.838488083545,1.43102087212489,Nee Soon East CC,Community Club,1,,768893,Yishun Avenue 9,A,,https://www.onepa.sg/cc/nee-soon-east-cc,0,0,,,,AC342EBBFB4D2228,20190624164320,,,,,,,,,,,,,,,,
103.834693130803,1.4151749664221,Nee Soon South CC,Community Club,30,,768455,Yishun Street 81,A,,https://www.onepa.sg/cc/nee-soon-south-cc,0,0,,,,82894824BE63E4A5,20190624164320,,,,,,,,,,,,,,,,
103.847288237219,1.41960681953195,Nee Soon Spring CC,Community Centre,431A,,761431,Yishun Avenue 1,A,,https://www.onepa.sg/cc/nee-soon-spring-cc,0,0,,,1,96265A008B5F38A9,20190624164320,507,,,,,,,,,,,,,,,
103.959198004761,1.3685870294423,Pasir Ris East CC,Community Club,1,,519457,Pasir Ris Drive 4,A,,https://www.onepa.sg/cc/pasir-ris-east-cc,0,0,,,1,7A4676FAA0D6522A,20190624164320,8,,,,,,,,,,,,,,,
103.942476405496,1.37842943699246,Pasir Ris Elias CC,Community Club,93,,519498,Pasir Ris Drive 3,A,,https://www.onepa.sg/cc/pasir-ris-elias-cc,0,0,,,,E33897E81ADD7BB4,20190624164320,,,,,,,,,,,,,,,,
103.886092082636,1.35779860505296,Paya Lebar Kovan CC,Community Club,207,,530207,Hougang Street 21,A,,https://www.onepa.sg/cc/paya-lebar-kovan-cc,0,0,,,,A9D41AFCEBC6D785,20190624164320,,,,,,,,,,,,,,,,
103.86703683934,1.33253591154285,Potong Pasir CC,Community Club,6,,358361,Potong Pasir Avenue 2,A,,https://www.onepa.sg/cc/potong-pasir-cc,0,0,,,,CACBDF199E1794E9,20190624164320,,,,,,,,,,,,,,,,
103.913464113125,1.39360624159956,Punggol 21 CC,Community Club,80,,828815,Punggol Field,A,,https://www.onepa.sg/cc/punggol-21-cc,0,0,,,1,276AC22B3220ED32,20190624164320,1,,,,,,,,,,,,,,,
103.891815328408,1.3743788214828,Punggol CC,Community Club,3,,538808,Hougang Avenue 6,A,,https://www.onepa.sg/cc/punggol-cc,0,0,,,,8A19CBF432004F7B,20190624164320,,,,,,,,,,,,,,,,
103.896252886146,1.37773444443111,Punggol Park CC,Community Centre,458,,530458,Hougang Avenue 10,A,,https://www.onepa.sg/cc/punggol-park-cc,0,0,,,1,D9AF7CAF20D8E706,20190624164320,405,,,,,,,,,,,,,,,
103.907288602075,1.40328429076968,Punggol Vista CC,Community Centre,602,,820602,Punggol Central,A,,https://www.onepa.sg/cc/punggol-vista-cc,0,0,,,1,2B5C6C93CB6CF458,20190624164320,2,,,,,,,,,,,,,,,
103.89566486383,1.40451590068484,Punggol West CC,Community Centre,259C,,823259,Punggol Field,A,,,0,0,,,1,2E8A2B0DBB5BD044,20190624164320,47,,,,,,,,,,,,,,,
103.80130510766,1.29915022797049,Queenstown CC,Community Centre,365,,149732,Commonwealth Avenue,A,,https://www.onepa.sg/cc/queenstown-cc,0,0,,,,B647988A6B0900B0,20190624164320,,,,,,,,,,,,,,,,
103.83761242449,1.37300749906274,Kebun Baru CC,Community Club,216,,569897,Ang Mo Kio Avenue 4,A,,https://www.onepa.sg/cc/kebun-baru-cc,0,0,,,,2752FB78DCB7109C,20190624164320,,,,,,,,,,,,,,,,
103.83070644581,1.28968265976033,Kim Seng CC,Community Centre,570,,169640,Havelock Road,A,,https://www.onepa.sg/cc/kim-seng-cc,0,0,,,,36C68237A473B1EA,20190624164320,,,,,,,,,,,,,,,,
103.870163153936,1.32369076746522,Kolam Ayer CC (Till 3Q 2019),Community Club,97,,330097,Geylang Bahru,A,,https://www.onepa.sg/cc/kolam-ayer-cc,0,0,,,1,F95A0F6F8FCC3C45,20190624164320,3178,,,,,,,,,,,,,,,
103.869693090627,1.32415431819916,Kolam Ayer CC (U/C),Community Club,1,,339631,Geylang Bahru Lane,A,,https://www.onepa.sg/cc/kolam-ayer-cc,0,0,,,,0E1F139BAB990B6F,20190624164320,,,,,,,,,,,,,,,,
103.843012853618,1.28119257621546,Kreta Ayer CC,Community Club,28A,,88995,Kreta Ayer Road,A,,https://www.onepa.sg/cc/kreta-ayer-cc,0,0,,,,A3B9130EC76AA81A,20190624164320,,,,,,,,,,,,,,,,
103.81444834816,1.28978711891653,Leng Kee CC,Community Club,400,,159049,Lengkok Bahru,A,,https://www.onepa.sg/cc/leng-kee-cc,0,0,,,,D82C68DCC4FDE23B,20190624164320,,,,,,,,,,,,,,,,
103.884481193415,1.3235370882948,MacPherson CC,Community Club,400,,379131,Paya Lebar Way,A,,https://www.onepa.sg/cc/macpherson-cc,0,0,,,,9455CC4AC8CC264E,20190624164320,,,,,,,,,,,,,,,,
103.846961925945,1.42553143932816,Yishun Link CC (U/C),Community Club,412/413,,760412,Yishun Ring Road,,,,0,0,,,,609E486780887A38,20190624164320,,,,,,,,,,,,,,,,
103.737065915264,1.33997285278881,Yuhua CC,Community Club,90,,609958,Boon Lay Way,A,,https://www.onepa.sg/cc/yuhua-cc,0,0,,,,6D45D9D5E8D60226,20190624164320,,,,,,,,,,,,,,,,
103.930623466344,1.3131589522001,Siglap South CC,Community Centre,6,,456441,Palm Road,A,,https://www.onepa.sg/cc/siglap-south-cc,0,0,,,,B9FC13001C213875,20190624164320,,,,,,,,,,,,,,,,
103.721626399564,1.3353068008328,Taman Jurong CC,Community Club,1,,618495,Yung Sheng Road,A,,https://www.onepa.sg/cc/taman-jurong-cc,0,0,,,,FF50516F9506C660,20190624164320,,,,,,,,,,,,,,,,
103.939683594446,1.35349615471813,Tampines Central CC,Community Club,1,,528523,Tampines Walk,A,,https://www.onepa.sg/cc/tampines-central-cc,0,0,,,4,C57C470A51994838,20190624164320,4,,,,,,,,,,,,,,,
103.947687834643,1.3458133461735,Tampines Changkat CC,Community Club,13,,529453,Tampines Street 11,A,,https://www.onepa.sg/cc/tampines-changkat-cc,0,0,,,1,5C41E93EAE0DA24A,20190624164320,5,,,,,,,,,,,,,,,
103.792240772323,1.42749277602918,ACE The Place CC,Community Club,120,,739069,Woodlands Avenue 1,A,,https://www.onepa.sg/cc/ace-the-place-cc,0,0,,,,ED70A438913A484C,20190624164320,,,,,,,,,,,,,,,,
103.889546235205,1.35465808310012,Aljunied CC,Community Centre,110,,530110,Hougang Avenue 1,A,,https://www.onepa.sg/cc/aljunied-cc,0,0,,,1,4B64AE4221EEAA94,20190624164320,1048,,,,,,,,,,,,,,,
103.886665684716,1.39712791773438,Anchorvale CC,Community Club,59,,544965,Anchorvale Road,A,,https://www.onepa.sg/cc/anchorvale-cc,0,0,,,,1DD8DC4D60EE3F9A,20190624164320,,,,,,,,,,,,,,,,
103.840668130337,1.36683348076669,Ang Mo Kio CC,Community Centre,795,,569976,Ang Mo Kio Avenue 1,A,,https://www.onepa.sg/cc/ang-mo-kio-cc,0,0,,,,DBABED77C37A5E5E,20190624164320,,,,,,,,,,,,,,,,
103.747540191939,1.3207993044286,Ayer Rajah CC,Community Centre,150,,609335,Pandan Gardens,A,,https://www.onepa.sg/cc/ayer-rajah-cc,0,0,,,,F95CD26FE1500937,20190624164320,,,,,,,,,,,,,,,,
103.936047838803,1.32424659842593,Bedok CC,Community Centre,850,,467352,New Upper Changi Road,A,,https://www.onepa.sg/cc/bedok-cc,0,0,,,,FEFA68213DF62BFE,20190624164320,,,,,,,,,,,,,,,,
103.850509275687,1.34951161831951,Bishan CC,Community Club,51,,579799,Bishan Street 13,A,,https://www.onepa.sg/cc/bishan-cc,0,0,,,,C270CDA2DF1C97FA,20190624164320,,,,,,,,,,,,,,,,
103.845592707159,1.35857600024384,Bishan North CC,Community Centre,233,,570233,Bishan Street 22,A,,https://www.onepa.sg/cc/bishan-north-cc,0,0,,,1,A24580C4B5B3D16A,20190624164320,126,,,,,,,,,,,,,,,
103.841443224617,1.36150663042332,Bishan North CC (U/C),Community Club,191,,575738,Sin Ming Avenue,A,,https://www.onepa.sg/cc/bishan-north-cc,0,0,,,,0DCB6BF1E5540188,20190624164320,,,,,,,,,,,,,,,,
103.711380186479,1.34832322532679,Boon Lay CC,Community Club,10,,649882,Boon Lay Place,A,,https://www.onepa.sg/cc/boon-lay-cc,0,0,,,,1CEA67E597F5FD46,20190624164320,,,,,,,,,,,,,,,,
103.8703678757,1.35161224552733,Braddell Heights CC,Community Club,50,,556129,Serangoon Avenue 2,A,,https://www.onepa.sg/cc/braddell-heights-cc,0,0,,,1,3228BC288A469F2B,20190624164320,1,,,,,,,,,,,,,,,
103.747514398535,1.35019080604781,Bukit Batok CC,Community Club,21,,659959,Bukit Batok Central,A,,https://www.onepa.sg/cc/bukit-batok-cc,0,0,,,,9BB55356F5E548A4,20190624164320,,,,,,,,,,,,,,,,
103.758195830417,1.34898738780681,Bukit Batok East CC,Community Club,23,,659841,Bukit Batok East Avenue 4,A,,https://www.onepa.sg/cc/bukit-batok-east-cc,0,0,,,,F5CA1F9C27987E86,20190624164320,,,,,,,,,,,,,,,,
103.815828543116,1.28525426592061,Bukit Merah CC,Community Centre,4000,,159465,Jalan Bukit Merah,A,,https://www.onepa.sg/cc/bukit-merah-cc,0,0,,,,EF45D09D4AD8CDC9,20190624164320,,,,,,,,,,,,,,,,
103.9095452826,1.30482859822658,Marine Parade CC,Community Club,278,,449282,Marine Parade Road,A,,https://www.onepa.sg/cc/marine-parade-cc,0,0,,,,2E133690CC5BDB10,20190624164320,,,,,,,,,,,,,,,,
103.954620461629,1.35335682593433,Tampines East CC (U/C),Community Club,10,,529341,Tampines Street 23,A,,https://www.onepa.sg/cc/tampines-east-cc,0,0,,,,C7C8B4E168C7FACC,20190624164320,,,,,,,,,,,,,,,,
103.952659475483,1.35187111509963,Tampines East CC (Till 4Q 2019),Community Club,209,,520209,Tampines Street 21,A,,https://www.onepa.sg/cc/tampines-east-cc,0,0,,,1,ACCAE1ADD9453D02,20190624164320,1339,,,,,,,,,,,,,,,
103.946651479153,1.35727397931488,Tampines North CC,Community Club,2,,529204,Tampines Street 41,A,,https://www.onepa.sg/cc/tampines-north-cc,0,0,,,,8E4D9717D6BD95F5,20190624164320,,,,,,,,,,,,,,,,
103.935633408895,1.34875076398822,Tampines West CC,Community Club,5,,529705,Tampines Avenue 3,A,,https://www.onepa.sg/cc/tampines-west-cc,0,0,,,,AB698123C1AA38BC,20190624164320,,,,,,,,,,,,,,,,
103.826877183466,1.32338446818001,Tanglin CC,Community Club,245,,297829,Whitley Road,A,,https://www.onepa.sg/cc/tanglin-cc,0,0,,,,F48761B12DB8D28F,20190624164320,,,,,,,,,,,,,,,,
103.841584210034,1.27616698002633,Tanjong Pagar CC,Community Club,101,,89774,Cantonment Road,A,,https://www.onepa.sg/cc/tanjong-pagar-cc,0,0,,,,F73A2A5EE2283573,20190624164320,,,,,,,,,,,,,,,,
103.853536076665,1.36308867917974,Teck Ghee CC,Community Club,861,,569734,Ang Mo Kio Avenue 10,A,,https://www.onepa.sg/cc/teck-ghee-cc,0,0,,,,B1746F6A64230673,20190624164320,,,,,,,,,,,,,,,,
103.807875435609,1.27486265663736,Telok Blangah CC,Community Club,450,,108943,Telok Blangah Street 31,A,,https://www.onepa.sg/cc/telok-blangah-cc,0,0,,,,9DD2B604F360C2EE,20190624164320,,,,,,,,,,,,,,,,
103.704452685304,1.34046956412475,The Frontier CC,Community Club,60,,648346,Jurong West Central 3,A,,https://www.onepa.sg/cc/the-frontier-cc,0,0,,,1,79E1120C188CB25E,20190624164320,1,,,,,,,,,,,,,,,
103.873927617452,1.37005486240283,The Serangoon CC,Community Club,10,,555877,Serangoon North Avenue 2,A,,https://www.onepa.sg/cc/the-serangoon-cc,0,0,,,,7D2FFBBBB56F0564,20190624164320,,,,,,,,,,,,,,,,
103.836186251796,1.35129758760058,Thomson CC,Community Club,194,,574339,Upper Thomson Road,A,,https://www.onepa.sg/cc/thomson-cc,0,0,,,,31CE4A6D56389B49,20190624164320,,,,,,,,,,,,,,,,
103.831882714575,1.28345251714882,Tiong Bahru CC,Community Centre,67A,,169715,Eu Chin Street,A,,https://www.onepa.sg/cc/tiong-bahru-cc,0,0,,,,6772C5E8FD8D356C,20190624164320,,,,,,,,,,,,,,,,
103.850205297112,1.33493380173705,Toa Payoh Central CC,Community Club,93,,319194,Toa Payoh Central,A,,https://www.onepa.sg/cc/toa-payoh-central-cc,0,0,,,,B025DA1AF70A21D4,20190624164320,,,,,,,,,,,,,,,,
103.85470024903,1.33627489206396,Toa Payoh East CC,Community Club,160,,319380,Lorong 6 Toa Payoh,A,,https://www.onepa.sg/cc/toa-payoh-east-cc,0,0,,,,5F159FB00C04FB77,20190624164320,,,,,,,,,,,,,,,,
103.859378979813,1.33489037046643,Toa Payoh South CC,Community Club,1999,,319258,Lorong 8 Toa Payoh,A,,https://www.onepa.sg/cc/toa-payoh-south-cc,0,0,,,,178CA4A31C350E45,20190624164320,,,,,,,,,,,,,,,,
103.843277324916,1.33796393479118,Toa Payoh West CC (Till 3Q 2019),Community Club,131,,310131,Lorong 1 Toa Payoh,A,,https://www.onepa.sg/cc/toa-payoh-west-cc,0,0,,,2,9E94F800EA05A61A,20190624164320,2,,,,,,,,,,,,,,,
103.844830875826,1.3353827124599,Toa Payoh West CC (U/C),Community Club,200,,319642,Lorong 2 Toa Payoh,A,,https://www.onepa.sg/cc/toa-payoh-west-cc,0,0,,,,5F638116E616EEE9,20190624164320,,,,,,,,,,,,,,,,
103.789211186001,1.31200940949361,Ulu Pandan CC,Community Club,170,Ulu Pandan Community Building,279621,Ghim Moh Road,A,,https://www.onepa.sg/cc/ulu-pandan-cc,0,0,,,1,F7D39D4FDE5770E4,20190624164320,1,,,,,,,,,,,,,,,
103.764832077473,1.30264555979077,West Coast CC,Community Centre,2,,129605,Clementi West Street 2,A,,https://www.onepa.sg/cc/west-coast-cc,0,0,,,,5DF752726BD6C22A,20190624164320,,,,,,,,,,,,,,,,
103.856979169641,1.32463959408329,Whampoa CC,Community Club,300,,327737,Whampoa Drive,A,,https://www.onepa.sg/cc/whampoa-cc,0,0,,,,66947A1A86FCC0AC,20190624164320,,,,,,,,,,,,,,,,
103.785006866148,1.43177102177052,Woodgrove CC,Community Centre,353,,730353,Woodlands Ave 1,A,,https://www.onepa.sg/cc/woodgrove-cc,0,0,,,1,D36C8B9C069DCD21,20190624164320,753,,,,,,,,,,,,,,,
103.788235404817,1.43973033862036,Woodlands CC,Community Club,1,,738526,Woodlands Street 81,A,,https://www.onepa.sg/cc/woodlands-cc,0,0,,,1,7ADDE12E6F3F8AD9,20190624164320,1,,,,,,,,,,,,,,,
103.802610984283,1.43904160690114,Woodlands Galaxy CC,Community Club,31,,738991,Woodlands Avenue 6,A,,https://www.onepa.sg/cc/woodlands-galaxy-cc,0,0,,,,DB9E72A7FBDDFB97,20190624164320,,,,,,,,,,,,,,,,
103.877156286528,1.39166094409594,Fernvale CC (U/C),,,,,,,,,32878.56203,41508.35754,,,,CC7F81758127D878,20190628165516,,Fernvale CC (U/C),,,CC7F81758127D878,20190628165516,,32878.56203,41508.35754,,,,,,,
103.744727853367,1.39491758447052,Yew Tee CC,Community Club,20,Yew Tee Community Building,689286,Choa Chu Kang Street 52,A,,https://www.onepa.sg/cc/yew-tee-cc,0,0,,,1,2817F4C544BC5B72,20190624164320,1,,,,,,,,,,,,,,,
103.846507846526,1.28597766281346,imPAct@Hong Lim Green,,20,Hong Lim Park,58284,Upper Pickering Street,,,,0,0,,,,22A6CC85634B1705,20190624164320,,imPAct@Hong Lim Green,,,22A6CC85634B1705,20190624164320,,0,0,,,Upper Pickering Street,,Hong Lim Park,58284,20
103.946742143134,1.31729193602696,Siglap CC (U/C),,151,,460151,Bedok South Road,,,,0,0,,,,36AE61E3643686D0,20190624164320,,Siglap CC (U/C),,,36AE61E3643686D0,20190624164320,,0,0,,,Bedok South Road,,,460151,151
103.902494388171,1.38509193784747,Rivervale CC (U/C),,,,,,,,,35698.38284,40782.05711,,,,9B6D6E76C9403B33,20190628165516,,Rivervale CC (U/C),,,9B6D6E76C9403B33,20190628165516,,35698.38284,40782.05711,,,,,,,
103.871775550662,1.33880065021978,Bidadari CC (U/C),,,,,,,,,32279.85002,35663.32365,,,,D900EF921EED10C5,20190628165516,,Bidadari CC (U/C),,,D900EF921EED10C5,20190628165516,,32279.85002,35663.32365,,,,,,,
