X,Y,Name,description,ADDRESSBLOCKHOUSENUMBER,ADDRESSBUILDINGNAME,ADDRESSFLOORNUMBER,ADDRESSPOSTALCODE,ADDRESSSTREETNAME,ADDRESSTYPE,DESCRIPTION2,HYPERLINK,LANDXADDRESSPOINT,LANDYADDRESSPOINT,NAME2,PHOTOURL,INC_CRC,FMEL_UPD_D,ADDRESSUNITNUMBER
103.853311673433,1.34593563504576,PCF SPARKLETOTS PRESCHOOL @ BISHAN EAST-THOMSON Blk 144 (KN),Kindergartens,,,,570144,144 Bishan Street 12 #01-554,,,,0,0,,,B765A88E3ACC1693,20170807175647,
103.850672501176,1.34909670833295,PCF SPARKLETOTS PRESCHOOL @ BISHAN EAST-THOMSON Blk 197 (KN),Kindergartens,,,,570197,197196115 197 Bishan Street 13 #01-567,,,,0,0,,,0165D5C989187A15,20170807175647,
103.837224444321,1.35151110568647,PCF SPARKLETOTS PRESCHOOL @ BISHAN EAST-THOMSON Blk 313 (KN),Kindergartens,,,,570313,313 Shunfu Road #01-287,,,,0,0,,,DC187DF41287B909,20170807175647,
103.845845691857,1.35729122276114,PCF SPARKLETOTS PRESCHOOL @ BISHAN NORTH Blk 231 (KN),Kindergartens,,,,570231,231 Bishan Street 23 #01-21,,,,0,0,,,D79174D1A5DA3CD6,20170807175647,
103.831751028933,1.35908430549976,PCF SPARKLETOTS PRESCHOOL @ BISHAN NORTH Blk 441 (KN),Kindergartens,,,,570441,441 Sin Ming Avenue #01-417,,,,0,0,,,2E27334C3C479CE7,20170807175647,
103.713568362946,1.34658608598901,PCF SPARKLETOTS PRESCHOOL @ BOON LAY Blk 207 (KN),Kindergartens,,,,640207,207 Boon Lay Place #01-215,,,,0,0,,,BA5F6F9BE254F955,20170807175647,
103.707299106492,1.34480138701436,PCF SPARKLETOTS PRESCHOOL @ BOON LAY Blk 262 (KN),Kindergartens,,,,640262,262 Boon Lay Drive #01-573,,,,0,0,,,CBD959D583133C3E,20170807175647,
103.700135375227,1.34305786269517,PCF SPARKLETOTS PRESCHOOL @ BOON LAY Blk 631 (KN),Kindergartens,,,,640631,631 Jurong West Street 65 #01-260,,,,0,0,,,973E31E03BF5C45C,20170807175647,
103.867068739226,1.35462817595605,PCF SPARKLETOTS PRESCHOOL @ BRADDELL HEIGHTS Blk 307 (KN),Kindergartens,,,,550307,307235 307 Serangoon Avenue 2 #01-44,,,,0,0,,,F5E24C238E986CE2,20170807175647,
103.875055740474,1.34993638129152,PCF SPARKLETOTS PRESCHOOL @ BRADDELL HEIGHTS Blk 417 (KN),Kindergartens,,,,550417,417 Serangoon Central #01-456,,,,0,0,,,A23852E763B7FF9A,20170807175647,
103.743590951844,1.34927162959176,PCF SPARKLETOTS PRESCHOOL @ BUKIT BATOK Blk 148 (KN),Kindergartens,,,,650148,148 Bukit Batok West Avenue 6 #01-319,,,,0,0,,,F6C99837153D11B7,20170807175647,
103.742841777388,1.34555899398528,PCF SPARKLETOTS PRESCHOOL @ BUKIT BATOK Blk 180 (KN),Kindergartens,,,,650180,180 Bukit Batok West Avenue 8 #01-181,,,,0,0,,,F73069E6E50C9F0F,20170807175647,
103.754544469251,1.3508952209973,PCF SPARKLETOTS PRESCHOOL @ BUKIT BATOK EAST Blk 241 (KN),Kindergartens,,,,650241,241 Bukit Batok East Avenue 5 #01-261,,,,0,0,,,D125DD88056F6DC4,20170807175647,
103.746604060797,1.33788840386755,PCF SPARKLETOTS PRESCHOOL @ BUKIT BATOK EAST Blk 285C (KN),Kindergartens,,,,603285,285D 285C Toh Guan Road #01-92,,,,0,0,,,B72E2B7D3A8B27EF,20170807175647,
103.758784095896,1.34504259330817,PCF SPARKLETOTS PRESCHOOL @ BUKIT BATOK EAST Blk 289G (KN),Kindergartens,,,,656289,289G Bukit Batok Street 25 #01-94,,,,0,0,,,4E6B1F6F499E614B,20170807175647,
103.750399548883,1.354970755306,PCF SPARKLETOTS PRESCHOOL @ BUKIT GOMBAK Blk 535 (DS),Kindergartens,,,,650535,535 Bukit Batok Street 52 #01-631,,,,0,0,,,48F07934BE982BC8,20170807175647,
103.768365659102,1.37816746625742,PCF SPARKLETOTS PRESCHOOL @ BUKIT PANJANG Blk 111 (KN),Kindergartens,,,,670111,111 110 111 Gangsa Road #01-75,,,,0,0,,,5249A9027C72B3FB,20170807175647,
103.772368439254,1.37523655343518,PCF SPARKLETOTS PRESCHOOL @ BUKIT PANJANG Blk 226 (KN),Kindergartens,,,,670226,226 Pending Road #01-179,,,,0,0,,,C1ACEDF577C828C0,20170807175647,
103.769635349771,1.38505146702094,PCF SPARKLETOTS PRESCHOOL @ BUKIT PANJANG Blk 422 (KN),Kindergartens,,,,670422,422420 422 Fajar Road #01-511,,,,0,0,,,DFDC77F2EDC44F28,20170807175647,
103.764787030136,1.31738024765265,PCF SPARKLETOTS PRESCHOOL @ BUKIT TIMAH Blk 319 (KN),Kindergartens,,,,120319,319 Clementi Avenue 4 #01-55,,,,0,0,,,59125BBCDF0A20D5,20170807175647,
103.795646469558,1.30796826749064,PCF SPARKLETOTS PRESCHOOL @ BUONA VISTA Blk 4 (DS),Kindergartens,,,,271004,4 Holland Close #01-19,,,,0,0,,,F34E78262FDC4F53,20170807175647,
103.796796430345,1.30164998846945,PCF SPARKLETOTS PRESCHOOL @ BUONA VISTA Blk 54 (KN),Kindergartens,,,,142054,54 Commonwealth Drive #01-564,,,,0,0,,,152EA7A3AB87C2C9,20170807175647,
103.817811633322,1.44680506037873,PCF SPARKLETOTS PRESCHOOL @ CANBERRA  Blk 330 (DS),Kindergartens,,,,750330,319  327  328 330 Sembawang Close #01-383,,,,0,0,,,DDB54BD55710A7B0,20170807175647,
103.814273472589,1.45083059176362,PCF SPARKLETOTS PRESCHOOL @ CANBERRA  Blk 468D (KN),Kindergartens,,,,754468,468C 468D Admiralty Drive #01-223,,,,0,0,,,A330411403337D72,20170807175647,
103.816118272529,1.45545241377599,PCF SPARKLETOTS PRESCHOOL @ CANBERRA  Blk 487 (KN),Kindergartens,,,,750487,487 488 487 Admiralty Link #01-131,,,,0,0,,,3474869B2470658A,20170807175647,
103.76349634557,1.38159641638072,PCF SPARKLETOTS PRESCHOOL @ CASHEW  Blk 545 (KN),Kindergartens,,,,670545,545544607 545 Bukit Panjang Ring Road #01-871,,,,0,0,,,556B7E588776D6BA,20170807175647,
103.871861623795,1.35067551423917,CS Montessori Kindergarten @ Serangoon,Kindergartens,,,,556083,Nex 23 Serangoon Central #04-77,,,,0,0,,,9C08ADA0112B65B4,20170807175647,
103.827180360704,1.2883008012921,CS Montessori Kindergarten @ Tiong Bahru,Kindergartens,,,,160036,36 Beo Crescent #01-31 The Beo Crescent,,,,0,0,,,AC312CE89C73277C,20170807175647,
103.898939411743,1.4149018704995,Dayspring Kindergarten,Kindergartens,,,,828670,Marina Country Club 11 Northshore Drive,,,,0,0,,,66534411E6822BA8,20170807175647,
103.898939411743,1.4149018704995,Dayspring Kindergarten @ Marina Country Club,Kindergartens,,,,828670,Marina Country Club 11 Northshore Drive #02-01,,,,0,0,,,66534411AE97125B,20170807175647,
103.890186075752,1.33249633254436,Divinity Kindergarten,Kindergartens,,,,408729,Oxley Bizhub 65 Ubi Road 1 #01-56 to 59,,,,0,0,,,398D185DCAF797EA,20170807175647,
103.903338648384,1.30438467004432,Dreamkids Kindergarten @ East Gate Pte Ltd,Kindergartens,,,,428766,Eastgate 46 East Coast Road #01-03,,,,0,0,,,D6386C12046A6494,20170807175647,
103.766715024824,1.32578168567282,Early Years Montessori,Kindergartens,,,,597475,16 Sunset Drive,,,,0,0,,,96043224946EBCEB,20170807175647,
103.697497312717,1.34435137286466,Elite Learning Kindergarten Pte Ltd,Kindergartens,,,,640720,720 Jurong West Avenue 5 #B1-94,,,,0,0,,,DE910E21BCD7808C,20170807175647,
103.913507766238,1.39161691413212,Eshkol Valley @ Gospel Light,Kindergartens,,,,828753,39 Punggol Field Walk #05-02,,,,0,0,,,72CC8884758B4A89,20170807175647,
103.701169377996,1.34615520005826,Evelyn's Schoolhouse,Kindergartens,,,,640735,735 Jurong West St 75 #01-19,,,,0,0,,,573BA47C1C933E79,20170807175647,
103.827449412797,1.42615725686001,First Step Montessori House,Kindergartens,,,,760716,716 Yishun Street 71 #01-268,,,,0,0,,,50FA864CB5546865,20170807175647,
103.816385918457,1.29430567842013,Grace House @ Tanglin,Kindergartens,,,,247960,355 Tanglin Road,,,,0,0,,,BFE01309DF289E25,20170807175647,
103.747427346703,1.36467948894382,Grace House Kindergarten,Kindergartens,,,,659125,1 Bukit Batok West Avenue 4 #04-01,,,,0,0,,,249F2BFB6CDD380F,20170807175647,
103.824478755159,1.30058938220351,Gracefields Kindergarten,Kindergartens,,,,248668,1 One Tree Hill  S(248668),,,,0,0,,,10545A5F5338AB33,20170807175647,
103.843463185078,1.31733464253519,GUG The Kindergarten,Kindergartens,,,,307591,101 Thomson Road #01-20/27,,,,0,0,,,65E2947EFEA276A2,20170807175647,
103.747115985815,1.39038150245775,Hanis Montessori Kindergarten (Choa Chu Kang),Kindergartens,,,,680707,707 Choa Chu Kang Street 53 #01-118,,,,0,0,,,EA74C8185B3FDFA5,20170807175647,
103.90261636278,1.33274846910928,Hanis Montessori Kindergarten (Enterprise One),Kindergartens,,,,415934,Enterprise One 1 Kakit Bukit Road #01-10,,,,0,0,,,46DEF2A3D2C05187,20170807175647,
103.878547948704,1.35497684262148,Hanis Montessori Kindergarten (Kovan),Kindergartens,,,,534645,777 Upper Serangoon Road #01-01,,,,0,0,,,1976814D77069BD1,20170807175647,
103.937049592237,1.37406386717002,Hanis Montessori Kindergarten (Pasir Ris),Kindergartens,,,,510775,775 Pasir Ris Street 71 #01-402,,,,0,0,,,8A6A18A57E129B53,20170807175647,
103.958609342977,1.35642450436398,Hanis Montessori Kindergarten (Tampines),Kindergartens,,,,520374,374 Tampines Street 34 #01-42,,,,0,0,,,A4B374BAD6F772C3,20170807175647,
103.774859396837,1.42729302505392,Hanis Montessori Kindergarten (Woodlands),Kindergartens,,,,730424,424 Woodlands Street 41 #01-340,,,,0,0,,,552B3B60AD968902,20170807175647,
103.75800298563,1.34737712974629,Iman Kindergarten (Bt. Batok),Kindergartens,,,,650277,277 Bukit Batok East Avenue 3 #02-373,,,,0,0,,,BEFAF9D6537A04DC,20170807175647,
103.741798790083,1.39262692742074,Iman Kindergarten (CCK),Kindergartens,,,,680530,530 Choa Chu Kang Street 51 #01-323,,,,0,0,,,C8D34C17178EC8AF,20170807175647,
103.945169502687,1.34467549409485,Iman Kindergarten (Tampines),Kindergartens,,,,521136,136 Tampines Street 11 #01-156,,,,0,0,,,A3C814242EE911E8,20170807175647,
103.907363530901,1.33219242945349,Iman Kindergarten (Tenagaville),Kindergartens,,,,410651,651 Jalan Tenaga #01-04,,,,0,0,,,093547B68D37BB6C,20170807175647,
103.836539123649,1.42576336560117,Iman Kindergarten (Yishun),Kindergartens,,,,760934,934 Yishun Central 1 #01-57,,,,0,0,,,E89685C191A5307E,20170807175647,
103.880828728081,1.30800944842723,Iroha Kindergarten,Kindergartens,,,,397999,Block C 231 Mountbatten Road #01-01,,,,0,0,,,4A3B60830C072F4A,20170807175647,
103.878782309824,1.31037919363521,Jamiyah Kindergarten,Kindergartens,,,,399006,31 Lorong 12 Geylang Level 3,,,,0,0,,,B2871CDA497F90CE,20170807175647,
103.883566202783,1.37757028448303,Jenius Kindergarten (Hougang),Kindergartens,,,,530915,915 Hougang Street 91 #01-10,,,,0,0,,,B985526A1A0CCB07,20170807175647,
103.951897833247,1.34375761106875,PCF SPARKLETOTS PRESCHOOL @ CHANGI-SIMEI Blk 119 (KN),Kindergartens,,,,520119,119 Simei Street 1 #01-506,,,,0,0,,,922E34C659E258BF,20170807175647,
103.953954328288,1.34550516579393,PCF SPARKLETOTS PRESCHOOL @ CHANGI-SIMEI Blk 131 (KN),Kindergartens,,,,520131,131 Simei Street 1 #01-208,,,,0,0,,,B4040427C0EB5B9D,20170807175647,
103.854214321314,1.36770367673575,PCF SPARKLETOTS PRESCHOOL @ CHENG SAN-SELETAR Blk 435 (KN),Kindergartens,,,,560435,435 Ang Mo Kio Avenue 10 #01-1393,,,,0,0,,,17606F2AED7AD6F9,20170807175647,
103.853001924346,1.37416922383178,PCF SPARKLETOTS PRESCHOOL @ CHENG SAN-SELETAR Blk 533 (KN),Kindergartens,,,,560533,533 Ang Mo Kio Avenue 5 #01-4100,,,,0,0,,,3C41D8F265F8D29F,20170807175647,
103.827520202995,1.43221807638831,PCF SPARKLETOTS PRESCHOOL @ CHONG PANG Blk 107 (KN),Kindergartens,,,,760107,107 Yishun Ring Road #01-207,,,,0,0,,,9F4B223EEAFF8538,20170807175647,
103.83112480555,1.43499758606717,PCF SPARKLETOTS PRESCHOOL @ CHONG PANG Blk 122 (KN),Kindergartens,,,,760122,122 Yishun Street 11 #01-479,,,,0,0,,,D06774118B7274BE,20170807175647,
103.755211077074,1.38047054635669,PCF SPARKLETOTS PRESCHOOL @ CHUA CHU KANG Blk 10 (KN),Kindergartens,,,,680010,810 Teck Whye Avenue #01-59,,,,0,0,,,973A945836AF246E,20170807175647,
103.749457687169,1.37919635456613,PCF SPARKLETOTS PRESCHOOL @ CHUA CHU KANG Blk 123 (KN),Kindergartens,,,,680123,123 Teck Whye Lane #01-864 S(680123),,,,0,0,,,799D1521AFE39404,20170807175647,
103.767781828766,1.31374471183118,PCF SPARKLETOTS PRESCHOOL @ CLEMENTI Blk 330 (KN),Kindergartens,,,,120330,330 Clementi Avenue 2 #01-170 S(120330),,,,0,0,,,A2A53568B590FE7E,20170807175647,
103.765901438084,1.31110092309926,PCF SPARKLETOTS PRESCHOOL @ CLEMENTI Blk 462A (KN),Kindergartens,,,,120462,462A Clementi Avenue 3 #01-01 S(120462),,,,0,0,,,46D53277F5B4E242,20170807175647,
103.910623676787,1.33197885908217,PCF SPARKLETOTS PRESCHOOL @ EUNOS Blk 122 (KN),Kindergartens,,,,470122,122 Bedok Reservoir Road #01-1021,,,,0,0,,,93BBF8AA4DA7CABB,20170807175647,
103.91499105091,1.33182714058031,PCF SPARKLETOTS PRESCHOOL @ EUNOS Blk 616 (KN),Kindergartens,,,,470616,616 Bedok Reservoir Road #01-1106,,,,0,0,,,EC2DA8E235F10076,20170807175647,
103.937542519962,1.33348258786788,PCF SPARKLETOTS PRESCHOOL @ FENGSHAN Blk 103 (KN),Kindergartens,,,,460103,103 Bedok North Avenue 4 #01-2000,,,,0,0,,,C2312A970ECD350C,20170807175647,
103.938917895267,1.32816830901984,PCF SPARKLETOTS PRESCHOOL @ FENGSHAN Blk 126 (KN),Kindergartens,,,,460126,126 Bedok North Street 2 #01-88,,,,0,0,,,8EABCA2EEF1B0997,20170807175647,
103.821562408077,1.44675733991225,PCF SPARKLETOTS PRESCHOOL @ GAMBAS Blk 309 (KN),Kindergartens,,,,750309,308309 309 Canberra  Road #01-109,,,,0,0,,,A3AE872380C5B66D,20170807175647,
103.820429169598,1.4459422913298,PCF SPARKLETOTS PRESCHOOL @ GAMBAS Blk 317 (KN),Kindergartens,,,,750317,317 Sembawang Vista #01-211,,,,0,0,,,9C4583B2B638C465,20170807175647,
103.848427509133,1.42625360262594,PCF SPARKLETOTS PRESCHOOL @ GAMBAS Blk 408 (KN),Kindergartens,,,,760408,408 Yishun Avenue 6 #01-1264,,,,0,0,,,ED75C5D5A174E159,20170807175647,
103.904424351083,1.32180029274141,PCF SPARKLETOTS PRESCHOOL @ GEYLANG SERAI Blk 11 (KN),Kindergartens,,,,400011,11 Eunos Cresent #01-2737,,,,0,0,,,C4652291CC1D2DDE,20170807175647,
103.879853824045,1.3360736459296,PCF SPARKLETOTS PRESCHOOL @ GEYLANG SERAI Blk 14 (KN),Kindergartens,,,,360014,1514 Joo Seng Road #01-103,,,,0,0,,,8B04568DA7C5FD96,20170807175647,
103.822781828395,1.28488705352685,PCF SPARKLETOTS PRESCHOOL @ HENDERSON-DAWSON Blk 124A (KN),Kindergartens,,,,151124,124A Bukit Merah View #01-406,,,,0,0,,,259DC918A624B781,20170807175647,
103.704411153052,1.3534476553688,PCF SPARKLETOTS PRESCHOOL @ HONG KAH NORTH  Blk 276D (KN),Kindergartens,,,,644276,276D Jurong West Street 25 #01-11,,,,0,0,,,088CA1938A1AE2B1,20170807175647,
103.746516665605,1.3613950798649,PCF SPARKLETOTS PRESCHOOL @ HONG KAH NORTH  Blk 319 (KN),Kindergartens,,,,650319,315 319 Bukit Batok Street 33 #01-40,,,,0,0,,,205ED26925C167FC,20170807175647,
103.750672676322,1.36353416926797,PCF SPARKLETOTS PRESCHOOL @ HONG KAH NORTH  Blk 338 (KN),Kindergartens,,,,650338,338 Bukit Batok Street 34 #01-338,,,,0,0,,,C4D619C5594A9337,20170807175647,
103.699191895947,1.3479371095215,PCF SPARKLETOTS PRESCHOOL @ HONG KAH NORTH  Blk 750 (KN),Kindergartens,,,,640750,749750 Jurong West Street 73 #01-169,,,,0,0,,,58B0EB7CEA01EBF4,20170807175647,
103.896534515318,1.36874824593674,PCF SPARKLETOTS PRESCHOOL @ HOUGANG Blk 328 (DS),Kindergartens,,,,530328,328 Hougang Avenue 5 #01-196,,,,0,0,,,56FE5228D633B367,20170807175647,
103.874102228398,1.37164172892946,PCF SPARKLETOTS PRESCHOOL @ JALAN KAYU Blk 518 (KN),Kindergartens,,,,550518,518 Serangoon North Avenue 4 #01-218,,,,0,0,,,BD8BC562EA75A1AE,20170807175647,
103.857625381458,1.37203234843133,PCF SPARKLETOTS PRESCHOOL @ JALAN KAYU Blk 556 (KN),Kindergartens,,,,560556,556 Ang Mo Kio Avenue 10 #01-1902,,,,0,0,,,56B85905DE92ABCC,20170807175647,
103.878283922894,1.37939224175356,PCF SPARKLETOTS PRESCHOOL @ JALAN KAYU Blk 987B (DS),Kindergartens,,,,532987,987B Buangkok Green #01-33,,,,0,0,,,229A556777022049,20170807175647,
103.727240375494,1.34958658820685,PCF SPARKLETOTS PRESCHOOL @ JURONG CENTRAL Blk 490 (KN),Kindergartens,,,,640490,490 Jurong West Avenue 1 #01-01,,,,0,0,,,14A53B3431647A0B,20170807175647,
103.953599087705,1.37714073427957,ACES Montessori Kidz Kindergarten,Kindergartens,,,,519599,Pasir Ris NTUC Resort 1 Pasir Ris Close #01-07A,,,,0,0,,,2D3F74CA9F0D4D28,20170807175647,
103.960042189056,1.35436493617485,Al - Amin Pre-School,Kindergartens,,,,529287,9 Tampines Street 32 #02-01,,,,0,0,,,A5B097A238EAA2EF,20170807175647,
103.946510454249,1.37276904719716,Al - Amin Preschool (Pasir Ris),Kindergartens,,,,510570,570 Pasir Ris Street 53 #01-64,,,,0,0,,,563BA2F1CC789633,20170807175647,
103.699193660892,1.34729336849645,Al-Nasry @ Jurong West Kindergarten,Kindergartens,,,,640743,743 Jurong West Street 73 #B1-03,,,,0,0,,,6E3239501C0F0357,20170807175647,
103.890373625995,1.37880333701103,Al-Nasry @ Sengkang South,Kindergartens,,,,530552,552 Hougang Street 51 #B1-296,,,,0,0,,,69A8E25D6BFCDD93,20170807175647,
103.831882706488,1.2834525352361,Artskidz Preschool,Kindergartens,,,,169715,Tiong Bahru Community Centre 67A Eu Chin Street Level 2,,,,0,0,,,EE9F6B79DEB96C44,20170807175647,
103.875389838417,1.37792345234583,Banyan Tree Education @ AMK PTE. LTD.,Kindergartens,,,,569880,Northstar@AMK 7030 Ang Mo Kio Ave 5 #01-45,,,,0,0,,,53490A27ED27E2E2,20170807175647,
103.834489499093,1.31918222303192,Barker Road Methodist Church Kindergarten,Kindergartens,,,,309936,70 Barker Road #01-01,,,,0,0,,,7367A4F1F267734E,20170807175647,
103.886672786663,1.32176644586798,Bethel Kinderlites,Kindergartens,,,,380114,114 Aljunied Avenue 2 #03-75,,,,0,0,,,618DDF0CBF959B22,20170807175647,
103.810676168654,1.32313886375113,Bibinogs Preschool K.A.,Kindergartens,,,,269695,559 Bukit Timah Road #B1-01,,,,0,0,,,760981189B32CA03,20170807175647,
103.891524298582,1.35916574851719,Brainy Bunch International Montessori,Kindergartens,,,,530247,247 Hougang Avenue 3 #01-452,,,,0,0,,,44CDC7373E903308,20170807175647,
103.964113181224,1.36484626324104,Brainy Bunch International Montessori (Pasir Ris),Kindergartens,,,,510273,273 Pasir Ris Street 21 #01-498,,,,0,0,,,5CB84BAE23018D42,20170807175647,
103.940884210817,1.35638868685459,British Council (Singapore) Pre-school,Kindergartens,,,,528729,11 Tampines Concourse #01-02/03/04,,,,0,0,,,152D27EA83E3D3A3,20170807175647,
103.767936365701,1.36190360658028,Bukit Panjang Methodist Church Kindergarten,Kindergartens,,,,678099,John Wesley Centre 496 Upper Bukit Timah Road,,,,0,0,,,1604332F408B344A,20170807175647,
103.771129084146,1.29153715079906,Buttercups Kindergarten (Pasir Panjang),Kindergartens,,,,118733,396 Pasir Panjang Road #02-01,,,,0,0,,,3794F0E54DFF89AC,20170807175647,
103.788347379411,1.30535121506496,Buttercups Kindergarten (Rochester),Kindergartens,,,,138639,The Rochester 35 Rochester Drive #03-11,,,,0,0,,,CDE4C99E168D7F18,20170807175647,
103.8459629096,1.3576084550777,Callidus Preschool,Kindergartens,,,,570229,229 Bishan Street 23 #B1-53,,,,0,0,,,E405A491D22EF470,20170807175647,
103.87781407803,1.34138865160895,Catholic Kindergarten,Kindergartens,,,,368051,Maris Stella Secondary High School 25 Mount Vernon Rd,,,,0,0,,,34ED2C7C1EC8F43B,20170807175647,
103.933043781842,1.36001176721697,Cavenur Kindergarten,Kindergartens,,,,520741,741 Tampines Street 72 #01-74,,,,0,0,,,BBA4D04FA4740955,20170807175647,
103.906371614962,1.39950941959693,Cedan Kindergarten,Kindergartens,,,,820198,198 Punggol Field #02-02,,,,0,0,,,16B0DFC5A1E22C71,20170807175647,
103.947573704,1.33181496984054,Chatsworth Kindergarten (Bedok),Kindergartens,,,,469538,Simpang Bedok Post Office 350 Bedok Road,,,,0,0,,,75F261121DBF23AF,20170807175647,
103.788347379411,1.30535121506496,Chengzhu Mandarin Kindergarten,Kindergartens,,,,138639,The Rochester 35 Rochester Drive #03-01/02/03/04/05/27,,,,0,0,,,CDE4C99E978ABB76,20170807175647,
103.765810204517,1.30287178501413,Clementi Woods Kindergarten LLP,Kindergartens,,,,127370,152 West Coast Road,,,,0,0,,,3FA453256F7453D0,20170807175647,
103.772116406684,1.34117840039053,Creative Thinkers Kindergarten,Kindergartens,,,,598606,110 Jalan Jurong Kechil #01-02/03/04,,,,0,0,,,D173F25B2A0B2600,20170807175647,
103.962434469836,1.35501778659978,Creative Twinkles Preschool,Kindergartens,,,,520354,354 Tampines Street 33 #01-530,,,,0,0,,,919D8E498ADA3C8D,20170807175647,
103.73893180394,1.37805613765446,Kinderland  Kindergarten (Choa Chu Kang),Kindergartens,,,,680475,475 Choa Chu Kang Avenue 3 #02-15,,,,0,0,,,B55F09E3A55A61DF,20170807175647,
103.78661961568,1.43507789397688,Kinderland Kindergarten (Woodlands),Kindergartens,,,,730900,Woodlands Civic Centre 900 South Woodlands Drive #05-10,,,,0,0,,,6E838EA7E52EEE7C,20170807175647,
103.793256122878,1.33879672516072,Kizroo Kindergarten,Kindergartens,,,,287994,The Grandstand 200 Turf Club Road #06-03,,,,0,0,,,48B40C39D733CF87,20170807175647,
103.828762985206,1.43061828496815,Little Leader Kindergarten,Kindergartens,,,,760102,102 Yishun Avenue 5 #04-115,,,,0,0,,,502E5588448D2A4E,20170807175647,
103.919245737503,1.31565625475484,LittleSparks Montessori Kindergarten,Kindergartens,,,,456192,Bowmont Centre 20 Siglap Drive #01-06,,,,0,0,,,1914E24BAE560764,20170807175647,
103.891400633109,1.35598783752383,Living Sanctuary Kindergarten,Kindergartens,,,,538728,Bethesda Ground 2 Hougang Street 22,,,,0,0,,,71EC43D5810B2BD2,20170807175647,
103.953359372707,1.36092283634374,Mahad Al - Nasry Kindergarten,Kindergartens,,,,520476,476 Tampines Street 44 #01-179,,,,0,0,,,23391D86D2F14464,20170807175647,
103.745553846171,1.38510079794847,Metamorphosis Kindergarten,Kindergartens,,,,680309,309 Choa Chu Kang Avenue 4 #04-07,,,,0,0,,,24228EFF4215A0C1,20170807175647,
103.887832026894,1.37924528806957,Monte Kidz World (Hougang),Kindergartens,,,,538719,21 Hougang Street 51 #02-14,,,,0,0,,,66FF1CEE547537D5,20170807175647,
103.941978177656,1.37860238037502,Monte Kidz World (Pasir Ris),Kindergartens,,,,510625,625 Elias Road #02-330,,,,0,0,,,5FF712EF6C50B72F,20170807175647,
103.871416983339,1.37368392879253,MRC Kindergarten (Serangoon North),Kindergartens,,,,552542,542B Serangoon North Avenue 3 #01-03,,,,0,0,,,ADD3BD29FFCC6FEA,20170807175647,
103.83524899074,1.41624343583986,MRC Kindergarten (Yishun South),Kindergartens,,,,760848,848 Yishun Street 81 #01-150,,,,0,0,,,0A225E80245EA5C4,20170807175647,
103.836623076078,1.39159864915354,My Montessori Preschool @ Bullion,Kindergartens,,,,789100,Bullion Park 172 Lentor Loop #02-01,,,,0,0,,,112952B7DF5E44C0,20170807175647,
103.925260000788,1.30738621952786,My Prep School,Kindergartens,,,,448910,Mandarin Gardens Condominium 9 Siglap Road,,,,0,0,,,CA31D3461A59F3EA,20170807175647,
103.808254903828,1.27362999746203,Nanyang Children School,Kindergartens,,,,102078,78B Telok Blangah Street 32 #02-17,,,,0,0,,,4FA4F8C08F894114,20170807175647,
103.925744921544,1.33663362429966,Paper Scissors Stone Montessori Kindergarten (Bedok Reservoir Branch),Kindergartens,,,,470718,718 Bedok Reservoir Road #01-4590,,,,0,0,,,655476B6D60CBD3F,20170807175647,
103.792006998979,1.43292523592663,PCF SPARKLETOTS PRESCHOOL @ ADMIRALTY Blk 501 (KN),Kindergartens,,,,730501,501 Woodlands Drive 14 #01-52,,,,0,0,,,7797A45AA82BDCC7,20170807175647,
103.796403905781,1.42989029973982,PCF SPARKLETOTS PRESCHOOL @ ADMIRALTY Blk 581 (KN),Kindergartens,,,,730581,581 Woodlands Drive 16 #01-486,,,,0,0,,,83E6E5799EA31494,20170807175647,
103.807161950462,1.44188538574633,PCF SPARKLETOTS PRESCHOOL @ ADMIRALTY Blk 687B (KN),Kindergartens,,,,732687,687B Woodlands Drive 75 #01-47,,,,0,0,,,C241F297B69CD56F,20170807175647,
103.880591938834,1.37056742339093,PCF SPARKLETOTS PRESCHOOL @ ANG MO KIO-HOUGANG Blk 632 (KN),Kindergartens,,,,530632,632630 632 Hougang Avenue 8 #01-28,,,,0,0,,,1FB3EAF2794E359D,20170807175647,
103.881497897866,1.37603203699611,PCF SPARKLETOTS PRESCHOOL @ ANG MO KIO-HOUGANG Blk 929 (KN),Kindergartens,,,,530929,929 Hougang Street 91 #01-12,,,,0,0,,,CD402B29D28B6D3E,20170807175647,
103.88036381003,1.37879979501281,PCF SPARKLETOTS PRESCHOOL @ ANG MO KIO-HOUGANG Blk 970 (KN),Kindergartens,,,,530970,970 Hougang Street 91 #01-152,,,,0,0,,,8A38954F6756F449,20170807175647,
103.739968213771,1.32049456407411,PCF SPARKLETOTS PRESCHOOL @ AYER RAJAH Blk 48 (KN),Kindergartens,,,,600048,48 Teban Gardens Road #01-248,,,,0,0,,,B0FC889E9BA1F9F8,20170807175647,
103.936423904389,1.32352678651364,PCF SPARKLETOTS PRESCHOOL @ BEDOK Blk 30 (KN),Kindergartens,,,,461030,30 New Upper Changi Road #01-812,,,,0,0,,,3F90CD6C98D2CB58,20170807175647,
103.895995988498,1.37490432555167,PCF SPARKLETOTS PRESCHOOL @ BEDOK RESERVOIR-PUNGGOL Blk 414 (KN),Kindergartens,,,,530414,414415 414 Hougang Avenue 10 #01-1256,,,,0,0,,,39926CD5B8510F76,20170807175647,
103.899995256706,1.37521818719161,PCF SPARKLETOTS PRESCHOOL @ BEDOK RESERVOIR-PUNGGOL Blk 475C (DS),Kindergartens,,,,533475,475C Upper Serangoon Crescent #01-547,,,,0,0,,,6EB81AF5B3D3C982,20170807175647,
103.922392175386,1.33631179285535,PCF SPARKLETOTS PRESCHOOL @ BEDOK RESERVOIR-PUNGGOL Blk 713 (KN),Kindergartens,,,,470713,713 Bedok Reservoir Road #01-3960,,,,0,0,,,9268124A9A659690,20170807175647,
103.806468066376,1.32111549754801,Nanyang Kindergarten,Kindergartens,,,,269460,51 Coronation Road,,,,0,0,,,B04257A40A3BA83B,20160816140842,
103.920641244454,1.31107882998298,Kids 'n' Kids School,Kindergartens,,,,457453,17 Jalan Saudara Ku,,,,0,0,,,07188FB788327514,20150818095641,
103.851131068356,1.35355555150027,Kindergarten@An-Nahdhah,Kindergartens,,,,579786,9A Bishan Street 14,,,,0,0,,,5C752485BEC11AB0,20150818095641,
103.740253371367,1.37776771807967,Hope Community Kindergarten (Choa Chu Kang),Kindergartens,,,,689907,21 Choa Chu Kang Avenue 2,,,,0,0,,,36C7DB0325FB786A,20160816140842,
103.952153515611,1.36140393401701,Hope Community Kindergarten (Tampines),Kindergartens,,,,529151,20 Tampines Street 43,,,,0,0,,,BD3B2ECC98A4F612,20160816140842,
103.745756859504,1.37729300443789,Ichiban Nurtureland Kindergarten (Choa Chu Kang),Kindergartens,,,,689022,31 Hong San Walk,,,,0,0,,,6B9C2994761762C1,20160816140842,
103.943440850168,1.38368697890341,Kidz Meadow Kindergarten,Kindergartens,,,,519108,102 Pasir Ris Road,,,,0,0,,,B056A1E5789050AE,20170412114823,
103.779997537703,1.31396625067992,Little Ones Kindergarten,Kindergartens,,,,278886,58 Holland Grove Drive,,,,0,0,,,898DE51FF68163FF,20170412114823,
103.723209579699,1.35012595707304,PCF SPARKLETOTS PRESCHOOL @ JURONG SPRING Blk 465 (KN),Kindergartens,,,,640465,465 Jurong West Street 41 #01-536,,,,0,0,,,7FC0190FB6D0CE01,20170807175647,
103.720626369974,1.34630373624508,PCF SPARKLETOTS PRESCHOOL @ JURONG SPRING Blk 515 (KN),Kindergartens,,,,640515,515 Jurong West Street 52 #01-17,,,,0,0,,,C90D4C30787552AF,20170807175647,
103.716417393538,1.34788415546743,PCF SPARKLETOTS PRESCHOOL @ JURONG SPRING Blk 527 (KN),Kindergartens,,,,640527,527 Jurong West St 52 #01-301,,,,0,0,,,F61E039E43666A48,20170807175647,
103.928059091999,1.3308746512787,PCF SPARKLETOTS PRESCHOOL @ KAKI BUKIT Blk 519 (KN),Kindergartens,,,,460519,519 545 519 Bedok North Avenue 1 #01-372,,,,0,0,,,FA03A7F11C6F52E8,20170807175647,
103.92912981677,1.33421550583421,PCF SPARKLETOTS PRESCHOOL @ KAKI BUKIT Blk 526 (KN),Kindergartens,,,,460526,526 Bedok North Street 3 #01-462,,,,0,0,,,DC04BE4F5334DB84,20170807175647,
103.936506744467,1.32873202686779,PCF SPARKLETOTS PRESCHOOL @ KAMPONG CHAI CHEE Blk 135 (KN),Kindergartens,,,,460135,135 Bedok North Street 2 #01-137,,,,0,0,,,5C05892B517A0634,20170807175647,
103.932938108995,1.32810292193791,PCF SPARKLETOTS PRESCHOOL @ KAMPONG CHAI CHEE Blk 409 (KN),Kindergartens,,,,460409,409 Bedok North Avenue 2 #01-26,,,,0,0,,,3C62E0CB98E14BD4,20170807175647,
103.935821972437,1.33655000332883,PCF SPARKLETOTS PRESCHOOL @ KAMPONG CHAI CHEE Blk 775 (KN),Kindergartens,,,,470775,775 Bedok Reservoir View #01-333,,,,0,0,,,7BB0C2A67B8F7392,20170807175647,
103.860840751648,1.30458618978669,PCF SPARKLETOTS PRESCHOOL @ KAMPONG GLAM Blk 462 (KN),Kindergartens,,,,190462,462 Crawford Lane #03-33,,,,0,0,,,6DEDF75637B29926,20170807175647,
103.740967966174,1.37816643541684,PCF SPARKLETOTS PRESCHOOL @ KEAT HONG Blk 295 (KN),Kindergartens,,,,680295,295 Choa Chu Kang Avenue 2 #01-169,,,,0,0,,,0B4A34DF3DF10484,20170807175647,
103.741260167706,1.38105979807982,PCF SPARKLETOTS PRESCHOOL @ KEAT HONG Blk 411 (KN),Kindergartens,,,,680411,411 Choa Chu Kang Avenue 3 #01-359,,,,0,0,,,39684757ED819920,20170807175647,
103.743447220203,1.37525239526595,PCF SPARKLETOTS PRESCHOOL @ KEAT HONG Blk 801 (DS),Kindergartens,,,,680801,801 Keat Hong Close #01-01,,,,0,0,,,F5791BCF36A17923,20170807175647,
103.911863020624,1.32278533903391,PCF SPARKLETOTS PRESCHOOL @ KEMBANGAN CHAI CHEE Blk 116 (DS),Kindergartens,,,,410116,116 Lengkong Tiga #01-187,,,,0,0,,,12678D841CF4737E,20170807175647,
103.903801532306,1.32717743971872,PCF SPARKLETOTS PRESCHOOL @ KEMBANGAN CHAI CHEE Blk 326 (KN),Kindergartens,,,,400326,326 Ubi Avenue 1 #01-675,,,,0,0,,,9CF67478BE953D55,20170807175647,
103.92024673054,1.32488916639646,PCF SPARKLETOTS PRESCHOOL @ KEMBANGAN CHAI CHEE Blk 59 (KN),Kindergartens,,,,460059,59 Chai Chee Road #01-878,,,,0,0,,,A9BBEF9FACD25250,20170807175647,
103.870061150755,1.31423066707238,PCF SPARKLETOTS PRESCHOOL @ KOLAM AYER Blk 12 (KN),Kindergartens,,,,380012,12 Upper Boon Keng Road #01-895,,,,0,0,,,9644EF57ED4356A4,20170807175647,
103.868340800907,1.32036885079081,PCF SPARKLETOTS PRESCHOOL @ KOLAM AYER Blk 64 (KN),Kindergartens,,,,330064,5264 Kallang Bahru #01-375,,,,0,0,,,60F1C29A356325E0,20170807175647,
103.82869017933,1.29107462632884,PCF SPARKLETOTS PRESCHOOL @ KRETA AYER-KIM SENG Blk 79 (KN),Kindergartens,,,,161079,79 Indus Road #01-435,,,,0,0,,,43E1C63FFE104382,20170807175647,
103.744121086609,1.39402626916415,PCF SPARKLETOTS PRESCHOOL @ LIMBANG Blk 543 (KN),Kindergartens,,,,680543,540543 Choa Chu Kang Street 52 #01-70,,,,0,0,,,5812B42915B397E3,20170807175647,
103.901353490989,1.3891437909289,PCF SPARKLETOTS PRESCHOOL @ SENGKANG CENTRAL Blk 231 (KN),Kindergartens,,,,540231,232 231 Compassvale Walk #01-436,,,,0,0,,,FD02C3CABDAFD633,20170807175647,
103.894510812181,1.38233665673213,PCF SPARKLETOTS PRESCHOOL @ SENGKANG CENTRAL Blk 277B (KN),Kindergartens,,,,542277,277B Compassvale Link #01-264,,,,0,0,,,123B544907E269FF,20170807175647,
103.898745037753,1.39539857881701,PCF SPARKLETOTS PRESCHOOL @ SENGKANG CENTRAL Blk 292B (KN),Kindergartens,,,,542292,292B Compassvale Street #01-206,,,,0,0,,,8BEE66BFD7B7718C,20170807175647,
103.874073895403,1.39172886949266,PCF SPARKLETOTS PRESCHOOL @ SENGKANG SOUTH Blk 443 (KN),Kindergartens,,,,790443,443 Fernvale Road #01-411,,,,0,0,,,88318F1A94668423,20170807175647,
103.896307993033,1.37849144781514,PCF SPARKLETOTS PRESCHOOL @ SENGKANG SOUTH Blk 452 (DS),Kindergartens,,,,530452,452 Hougang Avenue 10 #01-575,,,,0,0,,,F7F38C9AB56C745B,20170807175647,
103.890133775908,1.37644174327395,PCF SPARKLETOTS PRESCHOOL @ SENGKANG SOUTH Blk 535 (KN),Kindergartens,,,,530535,535542 535 Hougang Street 52 #01-18,,,,0,0,,,FA1F0372FE8C37AB,20170807175647,
103.890776484618,1.38707884232909,PCF SPARKLETOTS PRESCHOOL @ SENGKANG WEST Blk 303A (KN),Kindergartens,,,,541303,303A 302A 303A Anchorvale Link #01-82,,,,0,0,,,A07C80E0C7CCD5C8,20170807175647,
103.88986543693,1.39662722291944,PCF SPARKLETOTS PRESCHOOL @ SENGKANG WEST Blk 330A (DS),Kindergartens,,,,541330,330A Anchorvale Street #01-519,,,,0,0,,,96A4EB891B8659E4,20170807175647,
103.879963568248,1.39061195450748,PCF SPARKLETOTS PRESCHOOL @ SENGKANG WEST Blk 416A (KN),Kindergartens,,,,791416,416A Fernvale Link #01-106,,,,0,0,,,D301729C0D8C4C2D,20170807175647,
103.876507008505,1.39272633656157,PCF SPARKLETOTS PRESCHOOL @ SENGKANG WEST Blk 436D (KN),Kindergartens,,,,791436,436D 436A 436D Fernvale Road #01-156,,,,0,0,,,C2D9AFBA97DFA249,20170807175647,
103.872110834781,1.36645063280186,PCF SPARKLETOTS PRESCHOOL @ SERANGOON Blk 125 (KN),Kindergartens,,,,550125,125 Serangoon North Avenue 1 #01-133,,,,0,0,,,06D9146CAE1A376B,20170807175647,
103.870855830831,1.3568220523033,PCF SPARKLETOTS PRESCHOOL @ SERANGOON Blk 226 (KN),Kindergartens,,,,550226,226 Serangoon Avenue 4 #01-149,,,,0,0,,,69011EEDA8739ED0,20170807175647,
103.9461110701,1.32072011250552,PCF SPARKLETOTS PRESCHOOL @ SIGLAP Blk 170 (KN),Kindergartens,,,,460170,170 Bedok South Road #01-354,,,,0,0,,,090E916F9458A17A,20170807175647,
103.720184382763,1.33936578854341,PCF SPARKLETOTS PRESCHOOL @ TAMAN JURONG Blk 352 (KN),Kindergartens,,,,610352,352 355 352 Kang Ching Road #01-71,,,,0,0,,,2E361C14ABA36DD8,20170807175647,
103.935334502241,1.35698450680256,PCF SPARKLETOTS PRESCHOOL @ TAMPINES CENTRAL Blk 725 (DS),Kindergartens,,,,520725,725 726 860 725 Tampines Street 71 #01-179,,,,0,0,,,3534D38679337C02,20170807175647,
103.936557642277,1.35344323889145,PCF SPARKLETOTS PRESCHOOL @ TAMPINES CENTRAL Blk 856 (KN),Kindergartens,,,,520856,856 854 856 Tampines Street 82 #01-279,,,,0,0,,,C2FCB7DC47EE0DBF,20170807175647,
103.933979626944,1.35477615380412,PCF SPARKLETOTS PRESCHOOL @ TAMPINES CENTRAL Blk 868A (KN),Kindergartens,,,,520868,868A Tampines Avenue 8 #01-534,,,,0,0,,,B33031263CC5753E,20170807175647,
103.95096547661,1.35430349296737,PCF SPARKLETOTS PRESCHOOL @ TAMPINES EAST Blk 261 (KN),Kindergartens,,,,520261,261 Tampines Street 21 #01-300,,,,0,0,,,A0A652EC73B68B4C,20170807175647,
103.950970401329,1.3537566391993,PCF SPARKLETOTS PRESCHOOL @ TAMPINES EAST Blk 262 (DS),Kindergartens,,,,520262,262 Tampines Street 21 #01-272,,,,0,0,,,440E20C778EB3DC6,20170807175647,
103.952685917888,1.36143339790939,PCF SPARKLETOTS PRESCHOOL @ TAMPINES NORTH Blk 483 (KN),Kindergartens,,,,520483,483 Tampines Street 43 #01-202,,,,0,0,,,916CE0CF1DF0A930,20170807175647,
103.943814796266,1.3475577983158,PCF SPARKLETOTS PRESCHOOL @ TAMPINES WEST Blk 140 (KN),Kindergartens,,,,520140,140 938 140 Tampines Street 12 #01-426,,,,0,0,,,EA119F06F6A3C6EA,20170807175647,
103.931896396057,1.35046410301253,PCF SPARKLETOTS PRESCHOOL @ TAMPINES WEST Blk 887 (KN),Kindergartens,,,,520887,887 Tampines Street 81 #01-1006,,,,0,0,,,698D45212DF4FCBC,20170807175647,
103.947675431377,1.34753917636974,PCF SPARKLETOTS PRESCHOOL @ TAMPINES-CHANGKAT Blk 106 (KN),Kindergartens,,,,521106,106 Tampines Street 11 #01-339,,,,0,0,,,27F1028F11D05748,20170807175647,
103.952628182932,1.34910384528996,PCF SPARKLETOTS PRESCHOOL @ TAMPINES-CHANGKAT Blk 284 (KN),Kindergartens,,,,520284,284 285 284 Tampines Street 22 #01-149,,,,0,0,,,5C88E68BFCB9409B,20170807175647,
103.95607491936,1.35146092489117,PCF SPARKLETOTS PRESCHOOL @ TAMPINES-CHANGKAT Blk 318 (KN),Kindergartens,,,,520318,318 Tampines Street 33 #01-80,,,,0,0,,,501B6EF66766CA30,20170807175647,
103.961004154368,1.35447447236302,PCF SPARKLETOTS PRESCHOOL @ TAMPINES-CHANGKAT Blk 358 (KN),Kindergartens,,,,520358,358 Tampines Street 33 #01-666,,,,0,0,,,66D1CF9797932FC7,20170807175647,
103.829271252657,1.28041256214655,PCF SPARKLETOTS PRESCHOOL @ TANJONG PAGAR-TIONG BAHRU Blk 130 (KN),Kindergartens,,,,160130,130 127 130 Kim Tian Road #01-157,,,,0,0,,,0071C7EE7472F4D9,20170807175647,
103.841156142255,1.27662168431871,PCF SPARKLETOTS PRESCHOOL @ TANJONG PAGAR-TIONG BAHRU Blk 1E (KN),Kindergartens,,,,085501,1E Cantoment Road #03-49,,,,0,0,,,BCFE806CF2504202,20170807175647,
103.845903592219,1.36742111665554,PCF SPARKLETOTS PRESCHOOL @ TECK GHEE Blk 301 (KN),Kindergartens,,,,560301,301 Ang Mo Kio Street 31 #01-1814,,,,0,0,,,E6B97D8DF4AB84D4,20170807175647,
103.857061606295,1.36581960528611,PCF SPARKLETOTS PRESCHOOL @ TECK GHEE Blk 466 (KN),Kindergartens,,,,560466,466 Ang Mo Kio Avenue 10 #01-1034,,,,0,0,,,8445DA7F37C986C9,20170807175647,
103.782900803017,1.30310745258932,PCF SPARKLETOTS PRESCHOOL @ TELOK BLANGAH Blk 2 (KN),Kindergartens,,,,130002,2 Dover Road #01-342,,,,0,0,,,A21F4011951C07DD,20170807175647,
103.808934817338,1.27338252999837,PCF SPARKLETOTS PRESCHOOL @ TELOK BLANGAH Blk 78A (KN),Kindergartens,,,,101078,78A Telok Blangah Street 32 #03-01,,,,0,0,,,B163FC1AFE77291E,20170807175647,
103.845452864372,1.33220625743914,PCF SPARKLETOTS PRESCHOOL @ TOA PAYOH CENTRAL Blk 157 (KN),Kindergartens,,,,310157,157 Lorong 1 Toa Payoh #01-1243,,,,0,0,,,F1996FE7382810ED,20170807175647,
103.847769289766,1.33862553183062,PCF SPARKLETOTS PRESCHOOL @ TOA PAYOH CENTRAL Blk 97 (KN),Kindergartens,,,,310097,97 Lorong 3 Toa Payoh #01-60,,,,0,0,,,CD72DA7647E1349F,20170807175647,
103.85719237775,1.33858279710941,PCF SPARKLETOTS PRESCHOOL @ TOA PAYOH EAST-NOVENA Blk 6 (KN),Kindergartens,,,,310006,6 Lorong 7 Toa Payoh #01-181,,,,0,0,,,C84669166255829D,20170807175647,
103.847727630143,1.342209483289,PCF SPARKLETOTS PRESCHOOL @ TOA PAYOH WEST-BALESTIER Blk 205 (KN),Kindergartens,,,,310205,205 Toa Payoh North #01-1175,,,,0,0,,,9E44CBFCC74E0638,20170807175647,
103.853751152793,1.33586536687034,PCF SPARKLETOTS PRESCHOOL @ TOA PAYOH WEST-BALESTIER Blk 45 (DS),Kindergartens,,,,310045,45 Lorong 5 Toa Payoh #01-149,,,,0,0,,,78C17FE884C6C509,20170807175647,
103.785517569352,1.30896882735727,PCF SPARKLETOTS PRESCHOOL @ ULU PANDAN Blk 24 (KN),Kindergartens,,,,270024,24 Ghim Moh Link #03-01,,,,0,0,,,70C1674FCB7CCD9D,20170807175647,
103.76110775317,1.30726693356708,PCF SPARKLETOTS PRESCHOOL @ WEST COAST Blk 702 (KN),Kindergartens,,,,120702,702 West Coast Rd #01-347,,,,0,0,,,CE1FD9067C10A795,20170807175647,
103.763602661856,1.30561273180692,PCF SPARKLETOTS PRESCHOOL @ WEST COAST Blk 728 (KN),Kindergartens,,,,120728,728 Clementi West Street 2 #01-390,,,,0,0,,,3617EB35B3EF1546,20170807175647,
103.860997837366,1.32102001224456,PCF SPARKLETOTS PRESCHOOL @ WHAMPOA Blk 106 (KN),Kindergartens,,,,322106,106 Towner Road #01-434,,,,0,0,,,3FE664FC266BD3EF,20170807175647,
103.856732215829,1.32600154050448,PCF SPARKLETOTS PRESCHOOL @ WHAMPOA Blk 112 (KN),Kindergartens,,,,321112,112 Whampoa Road #01-83,,,,0,0,,,41BF0C7B5C106D4C,20170807175647,
103.856444482489,1.32278920325769,PCF SPARKLETOTS PRESCHOOL @ WHAMPOA Blk 85 (KN),Kindergartens,,,,320085,85 Whampoa Drive #01-248,,,,0,0,,,3867956A9A3A8561,20170807175647,
103.786743448794,1.43407882447221,PCF SPARKLETOTS PRESCHOOL @ WOODGROVE Blk 364 (KN),Kindergartens,,,,730364,364 366 364 Woodlands Avenue 5 #01-478,,,,0,0,,,FD6B84C21DB5D775,20170807175647,
103.7952642852,1.43613334619091,PCF SPARKLETOTS PRESCHOOL @ WOODGROVE Blk 899B (KN),Kindergartens,,,,731899,899B Woodlands Drive 50 #01-276,,,,0,0,,,AEE6458482F75D30,20170807175647,
103.79977859377,1.4378988083815,PCF SPARKLETOTS PRESCHOOL @ WOODLANDS Blk 652 (KN),Kindergartens,,,,730652,652 Woodlands Ring Road #01-386,,,,0,0,,,EE59FE3C5A5D398E,20170807175647,
103.797703850485,1.44250944557736,PCF SPARKLETOTS PRESCHOOL @ WOODLANDS Blk 730 (KN),Kindergartens,,,,730730,730731 730 Woodlands Circle #01-25,,,,0,0,,,BEFD2A49665AB0B9,20170807175647,
103.789611670986,1.44253260995889,PCF SPARKLETOTS PRESCHOOL @ WOODLANDS Blk 875 (KN),Kindergartens,,,,730875,875 Woodlands Street 82 #01-548,,,,0,0,,,508BF64857D1992A,20170807175647,
103.74464576182,1.39846758593605,PCF SPARKLETOTS PRESCHOOL @ YEW TEE Blk 608 (KN),Kindergartens,,,,680608,608 Choa Chu Kang Street 62 #01-103,,,,0,0,,,74D4211AD23C763B,20170807175647,
103.745291162555,1.40251053795062,PCF SPARKLETOTS PRESCHOOL @ YEW TEE Blk 682 (KN),Kindergartens,,,,680682,682 Choa Chu Kang Crescent #01-504,,,,0,0,,,2B1281AF4C770EE8,20170807175647,
103.751987240645,1.40196203684134,PCF SPARKLETOTS PRESCHOOL @ YEW TEE Blk 690D (KN),Kindergartens,,,,684690,690D 690C 690D Choa Chu Kang Crescent #01-74,,,,0,0,,,43BEC28FE6F7E60A,20170807175647,
103.84351486551,1.36970823637717,PCF SPARKLETOTS PRESCHOOL @ YIO CHU KANG Blk 121 (KN),Kindergartens,,,,560121,121 Ang Mo Kio Avenue 3 #01-1711,,,,0,0,,,FA7A479A960F5C2D,20170807175647,
103.748349087459,1.39508339818904,PCF SPARKLETOTS PRESCHOOL @ LIMBANG Blk 786 (KN),Kindergartens,,,,680786,787788792 786 Choa Chu Kang Drive #01-237,,,,0,0,,,0AEAD3D0A4368134,20170807175647,
103.885168802719,1.31901276102355,PCF SPARKLETOTS PRESCHOOL @ MACPHERSON Blk 108 (KN),Kindergartens,,,,380108,107108 Aljunied Cres #01-36,,,,0,0,,,FF13EA47D6ADD5E6,20170807175647,
103.885407998746,1.32968232966632,PCF SPARKLETOTS PRESCHOOL @ MACPHERSON Blk 31 (KN),Kindergartens,,,,370031,31 Balam Road #01-103,,,,0,0,,,C3D301A720A82E3B,20170807175647,
103.88758535602,1.32385645602419,PCF SPARKLETOTS PRESCHOOL @ MACPHERSON Blk 54 (KN),Kindergartens,,,,370054,53 54 Pipit Road #01-52,,,,0,0,,,049CB7F258879EA8,20170807175647,
103.912659621658,1.30510474833918,PCF SPARKLETOTS PRESCHOOL @ MARINE PARADE Blk 46 (KN),Kindergartens,,,,440046,4746 Marine Crescent #01-42,,,,0,0,,,D953D02377452E6F,20170807175647,
103.778157094025,1.44191491539625,PCF SPARKLETOTS PRESCHOOL @ MARSILING Blk 15 (KN),Kindergartens,,,,730015,15 Marsiling Lane #01-163,,,,0,0,,,581951C3BF13173F,20170807175647,
103.774428431683,1.43151114640827,PCF SPARKLETOTS PRESCHOOL @ MARSILING Blk 302 (KN),Kindergartens,,,,730302,301 302 302 Woodlands Street 31 #01-301,,,,0,0,,,3378C9DC3DE72E17,20170807175647,
103.772918128939,1.44337609776795,PCF SPARKLETOTS PRESCHOOL @ MARSILING Blk 32 (KN),Kindergartens,,,,730032,30 32 Marsiling Drive #01-343,,,,0,0,,,0538153899A84678,20170807175647,
103.852209774917,1.31391659579236,PCF SPARKLETOTS PRESCHOOL @ MOULMEIN-CAIRNHILL Blk 10 (DS),Kindergartens,,,,210010,5210 Gloucester Road #01-33,,,,0,0,,,8CBBC0AF8CD5B02D,20170807175647,
103.885731691492,1.30810983144184,PCF SPARKLETOTS PRESCHOOL @ MOUNTBATTEN Blk 51 (KN),Kindergartens,,,,390051,51 Old Airport Road #02-01,,,,0,0,,,1E504BC37B351478,20170807175647,
103.695778180257,1.34600001087355,PCF SPARKLETOTS PRESCHOOL @ NANYANG Blk 813 (KN),Kindergartens,,,,640813,813 Jurong West Street 81 #01-180,,,,0,0,,,DE91496CF242447D,20170807175647,
103.688737677384,1.34223794701064,PCF SPARKLETOTS PRESCHOOL @ NANYANG Blk 934 (KN),Kindergartens,,,,640934,934 Jurong West Street 91 #01-329,,,,0,0,,,34E0326F91F42BC0,20170807175647,
103.8360822201,1.42098943098536,PCF SPARKLETOTS PRESCHOOL @ NEE SOON CENTRAL Blk 609 (KN),Kindergartens,,,,760609,609 Yishun Street 61 #01-235,,,,0,0,,,412CAE0489B06E9F,20170807175647,
103.837491394187,1.42211202751348,PCF SPARKLETOTS PRESCHOOL @ NEE SOON CENTRAL Blk 646 (KN),Kindergartens,,,,760646,644646 Yishun Street 61 #01-354,,,,0,0,,,1E2DE0D6718F7D53,20170807175647,
103.832444558488,1.42897508472674,PCF SPARKLETOTS PRESCHOOL @ NEE SOON CENTRAL Blk 737 (KN),Kindergartens,,,,760737,737 Yishun Street 72 #01-99,,,,0,0,,,28886CECB096F9F5,20170807175647,
103.832471414586,1.42936928155541,PCF SPARKLETOTS PRESCHOOL @ NEE SOON CENTRAL Blk 738 (KN),Kindergartens,,,,760738,738 Yishun Street 72 #01-135,,,,0,0,,,B056F5A0D69463DB,20170807175647,
103.835602685508,1.43436727338973,PCF SPARKLETOTS PRESCHOOL @ NEE SOON EAST Blk 223 (KN),Kindergartens,,,,760223,223 225 223 Yishun St 21 #01-520,,,,0,0,,,B557CC55DD11A787,20170807175647,
103.845121454186,1.42959194814894,PCF SPARKLETOTS PRESCHOOL @ NEE SOON EAST Blk 367 (KN),Kindergartens,,,,760367,367 Yishun Ring Road #01-1534,,,,0,0,,,630BCEABCD3AD29E,20170807175647,
103.83628703137,1.41476320441217,PCF SPARKLETOTS PRESCHOOL @ NEE SOON SOUTH Blk 875  (KN),Kindergartens,,,,760875,874875 Yishun St 81 #01-175,,,,0,0,,,689225C08E471065,20170807175647,
103.960913206607,1.36902276298088,PCF SPARKLETOTS PRESCHOOL @ PASIR RIS EAST Blk 216 (KN),Kindergartens,,,,510216,213 216 Pasir Ris Street 21 #01-184,,,,0,0,,,079F81C8EA4E29BB,20170807175647,
103.955787858673,1.3699583875026,PCF SPARKLETOTS PRESCHOOL @ PASIR RIS EAST Blk 426 (KN),Kindergartens,,,,510426,427 426-1/2 Pasir Ris Drive 6 #01-73/61,,,,0,0,,,52453770180CC48D,20170807175647,
103.943850343464,1.37468100391147,PCF SPARKLETOTS PRESCHOOL @ PASIR RIS WEST Blk 517 (KN),Kindergartens,,,,510517,511517 Pasir Ris Street 52 #01-57,,,,0,0,,,496269DA2B312F2F,20170807175647,
103.936519186361,1.37915489282667,PCF SPARKLETOTS PRESCHOOL @ PASIR RIS WEST Blk 738 (KN),Kindergartens,,,,510738,738 737 738 Pasir Ris Drive 10 #01-21,,,,0,0,,,D9B1CF2E3EFEC83E,20170807175647,
103.886491573417,1.35240982574509,PCF SPARKLETOTS PRESCHOOL @ PAYA LEBAR Blk 125 (KN),Kindergartens,,,,530125,115125 Hougang Avenue 1 #01-1470,,,,0,0,,,F679A0B2ACC65450,20170807175647,
103.89072796886,1.3648666443292,PCF SPARKLETOTS PRESCHOOL @ PAYA LEBAR Blk 23 (KN),Kindergartens,,,,530023,23 Hougang Avenue 3 #01-303,,,,0,0,,,4D8B55D882FE7AA1,20170807175647,
103.695839832359,1.34036989056802,PCF SPARKLETOTS PRESCHOOL @ PIONEER Blk 642 (KN),Kindergartens,,,,640642,642 Jurong West Street 61 #01-60,,,,0,0,,,F8780E42FB234333,20170807175647,
103.697939908058,1.3361611383814,PCF SPARKLETOTS PRESCHOOL @ PIONEER Blk 654B (KN),Kindergartens,,,,642654,652A 652B 654A 654C 654B Jurong West Street 61 #01-490,,,,0,0,,,074BB103F704DD7B,20170807175647,
103.70338824824,1.33701948607757,PCF SPARKLETOTS PRESCHOOL @ PIONEER Blk 662B (KN),Kindergartens,,,,642662,662C 662B Jurong West Street 64 #01-312,,,,0,0,,,A680535E023C060D,20170807175647,
103.70312431501,1.34009318650664,PCF SPARKLETOTS PRESCHOOL @ PIONEER Blk 665A (KN),Kindergartens,,,,641665,665B 665A Jurong West Street 64 #01-160,,,,0,0,,,4D366F2C1C6225DE,20170807175647,
103.866168849459,1.33290761078346,PCF SPARKLETOTS PRESCHOOL @ POTONG PASIR Blk 143 (KN),Kindergartens,,,,350143,143 Potong Pasir Avenue 2 #01-24,,,,0,0,,,C0281B6F8D2E1B2C,20170807175647,
103.905762207291,1.40377787610907,PCF SPARKLETOTS PRESCHOOL @ PUNGGOL COAST Blk 303A (KN),Kindergartens,,,,821303,303A Punggol Central #01-782,,,,0,0,,,A6093525E64E6DEA,20170807175647,
103.910209754788,1.4048914049696,PCF SPARKLETOTS PRESCHOOL @ PUNGGOL COAST BLK 676B (DS),Kindergartens,,,,822676,676B Punggol Drive #02-724,,,,0,0,,,29187EDDE08FA782,20170807175647,
103.901208583347,1.38291145708602,PCF SPARKLETOTS PRESCHOOL @ PUNGGOL EAST Blk 103 (KN),Kindergartens,,,,540103,102103 Rivervale Walk #01-86,,,,0,0,,,CF45C7D628631C58,20170807175647,
103.902176145799,1.38813306750545,PCF SPARKLETOTS PRESCHOOL @ PUNGGOL EAST Blk 124A (KN),Kindergartens,,,,541124,124124A Rivervale Drive #01-193,,,,0,0,,,1140B513BE6DBAED,20170807175647,
103.905723427166,1.3900659282817,PCF SPARKLETOTS PRESCHOOL @ PUNGGOL EAST Blk 143 (KN),Kindergartens,,,,540143,147143 Rivervale Drive #01-557,,,,0,0,,,27A4E8AC39487E41,20170807175647,
103.905847576295,1.39429790648935,PCF SPARKLETOTS PRESCHOOL @ PUNGGOL EAST Blk 187B (KN),Kindergartens,,,,542187,187A 188A 187B Rivervale Drive #01-866,,,,0,0,,,7527A22A6B57D21A,20170807175647,
103.905229595094,1.39717529600079,PCF SPARKLETOTS PRESCHOOL @ PUNGGOL NORTH Blk 105D (KN),Kindergartens,,,,824105,105D Edgefield Plains #01-59,,,,0,0,,,3D47F04B56A65BFF,20170807175647,
103.913160952806,1.39481475162208,PCF SPARKLETOTS PRESCHOOL @ PUNGGOL NORTH Blk 171C (KN),Kindergartens,,,,823171,171B171C Edgedale Plains #01-438,,,,0,0,,,ACAA65B348E3D1A3,20170807175647,
103.909987375681,1.3974939987144,PCF SPARKLETOTS PRESCHOOL @ PUNGGOL NORTH Blk 174D (KN),Kindergartens,,,,824174,176D174D Edgedale Plains #01-193,,,,0,0,,,7AD1569F52158628,20170807175647,
103.917080046873,1.40024347553393,PCF SPARKLETOTS PRESCHOOL @ PUNGGOL NORTH Blk 663A (DS),Kindergartens,,,,821663,663A Punggol Drive #01-260,,,,0,0,,,06383D31B170C622,20170807175647,
103.900318867671,1.40374538644584,PCF SPARKLETOTS PRESCHOOL @ PUNGGOL WEST Blk 271A (KN),Kindergartens,,,,821271,271A Punggol Walk #01-509,,,,0,0,,,A5D81302E5380924,20170807175647,
103.899580858353,1.40776676166896,PCF SPARKLETOTS PRESCHOOL @ PUNGGOL WEST Blk 308B (DS),Kindergartens,,,,822308,308B Punggol Walk #01-364,,,,0,0,,,CCC306978FA24AF6,20170807175647,
103.807000524329,1.28713356012894,PCF SPARKLETOTS PRESCHOOL @ QUEENSTOWN Blk 3 (KN),Kindergartens,,,,150003,3 Jalan Bukit Merah #01-5118,,,,0,0,,,0E2D6450C930A6B6,20170807175647,
103.807613949484,1.29333561146963,PCF SPARKLETOTS PRESCHOOL @ QUEENSTOWN Blk 53A (KN),Kindergartens,,,,143053,53A Strathmore Avenue #01-01,,,,0,0,,,A7DC7D2C3E332EB5,20170807175647,
103.825328120687,1.27337413717479,PCF SPARKLETOTS PRESCHOOL @ RADIN MAS Blk 108 (KN),Kindergartens,,,,090108,108 Bukit Purmei Road #01-105,,,,0,0,,,355C66472B428CA2,20170807175647,
103.820897121898,1.27663152270291,PCF SPARKLETOTS PRESCHOOL @ RADIN MAS Blk 21 (KN),Kindergartens,,,,090021,21 Telok Blangah Crescent #01-52,,,,0,0,,,1751EF63739B1F11,20170807175647,
103.816912477306,1.28700659404039,PCF SPARKLETOTS PRESCHOOL @ RADIN MAS Blk 70A (KN),Kindergartens,,,,151070,70A Redhill Close #07-01,,,,0,0,,,030CCFAE107B24BB,20170807175647,
103.819023683407,1.28603090024133,PCF SPARKLETOTS PRESCHOOL @ RADIN MAS Blk 87 (KN),Kindergartens,,,,150087,82 87 Redhill Close #01-582,,,,0,0,,,A8CCF44A811E9DDF,20170807175647,
103.822961721397,1.45125279471899,PCF SPARKLETOTS PRESCHOOL @ SEMBAWANG Blk 507D (KN),Kindergartens,,,,754507,501D503C 507D Wellington Circle #01-94,,,,0,0,,,7D1570C6C2354658,20170807175647,
103.800693953773,1.44568797321417,PCF SPARKLETOTS PRESCHOOL @ SEMBAWANG Blk 786B (KN),Kindergartens,,,,732786,786B Woodlands Drive 60 #01-97,,,,0,0,,,947AE507949B216B,20170807175647,
103.802378411735,1.44333483388874,PCF SPARKLETOTS PRESCHOOL @ SEMBAWANG Blk 789 (KN),Kindergartens,,,,730789,797 788 789 Woodlands Avenue 6 #01-663,,,,0,0,,,76AFC9B01962063E,20170807175647,
103.896739898341,1.38648067867893,PCF SPARKLETOTS PRESCHOOL @ SENGKANG CENTRAL Blk 206A (KN),Kindergartens,,,,541206,206D 206A Compassvale Lane #01-67,,,,0,0,,,29541414A592456D,20170807175647,
103.848428651423,1.33628535085071,Jessin Kindergarten,Kindergartens,,,,310085,85B Lorong 4 Toa Payoh #01-336,,,,0,0,,,902CBCBBB07818EE,20170807175647,
103.827075942185,1.29307225899878,JHS Montessori Kindergarten,Kindergartens,,,,248373,Valley Point Tower 491B River Valley Road #02-01,,,,0,0,,,DD9ABF6EEE154C3D,20170807175647,
103.959906459657,1.35436980606696,Josiah Montessori Kindergarten,Kindergartens,,,,529284,5 Tampines Street 32 #02-01,,,,0,0,,,EAFA22AA0151DB47,20170807175647,
103.845845691857,1.35729122276114,Joyhouse Montessori Preschool,Kindergartens,,,,570231,231 Bishan Street 23 #B1-05,,,,0,0,,,D79174D184DC9549,20170807175647,
103.828762985206,1.43061828496815,Kidszone Kindergarten,Kindergartens,,,,760102,102 Yishun Avenue 5 #03-115,,,,0,0,,,502E55886D17AA01,20170807175647,
103.948154510863,1.33354282536499,Ripples Montessori Kindergarten,Kindergartens,,,,488676,Picardy Garden 10 Jalan Pari Burong,,,,0,0,,,DF6FA5C9C995223C,20170807175647,
103.833559773918,1.41642177176593,Saraswathy Darma Muneeswaran Kindergarten,Kindergartens,,,,760838,838 Yishun Street 81 #01-322,,,,0,0,,,559118DB05118973,20170807175647,
103.858329277448,1.33173315732826,Saraswathy Kindergarten,Kindergartens,,,,310254,254 Kim Keat Avenue #01-110,,,,0,0,,,FDE975FE9E7D1391,20170807175647,
103.905318260736,1.30646587746767,Seeds D' Learning House,Kindergartens,,,,423731,252 Tembeling Road #02-07,,,,0,0,,,847C8504D7A5C14F,20170807175647,
103.936732583666,1.38310157215947,Sri Sathya Sai Kindergarten,Kindergartens,,,,510716,716 Pasir Ris St 72 #01-09,,,,0,0,,,8E58431DCFA83ED9,20170807175647,
103.838323725375,1.31669293642648,St. James' Church Kindergarten (Gilstead),Kindergartens,,,,309070,25 Gilstead Road,,,,0,0,,,C50B890839B47AD0,20170807175647,
103.875090678385,1.37353761419058,St. Vincent De Paul Kindergarten,Kindergartens,,,,550536,536 Serangoon North Ave 4 #01-187,,,,0,0,,,0BF1E77D0750C4DE,20170807175647,
103.923851968297,1.32470111427889,Starland Kindergarten,Kindergartens,,,,461029,29A Chai Chee Avenue #01-74,,,,0,0,,,B9FA2D97FCE6B97F,20170807175647,
103.724646631761,1.32696553916587,Summer Montessori,Kindergartens,,,,618593,The Agape 21 Yung Ho Road #01-04,,,,0,0,,,272ED2C77E0D6E27,20170807175647,
103.767477411047,1.33079295893023,The Little House (Montessori) Kindergarten,Kindergartens,,,,599968,Bowland Blk 1 Brookvale Drive #01-07,,,,0,0,,,22349350CF36E1AC,20170807175647,
103.89410008166,1.37107839618774,The Montessori Playroom Kindergarten,Kindergartens,,,,530806,806 Hougang Central #04-144,,,,0,0,,,E938732F9DC252FE,20170807175647,
103.697658654286,1.34578289547545,Tots Club Preschool,Kindergartens,,,,640727,727 Jurong West Ave 5 #B1-182,,,,0,0,,,B9EDC6367D885F2C,20170807175647,
103.936411756727,1.3817859627278,Totsville Montessori Kindergarten,Kindergartens,,,,510720,720 Pasir Ris Street 72 01-105,,,,0,0,,,F4A8F0CE1CF79617,20170807175647,
103.845493597552,1.35794579444771,Totsville Montessori Kindergarten (Bishan),Kindergartens,,,,570230,230 Bishan Street 23 #B1-35,,,,0,0,,,0212D7E3D0ECF3D4,20170807175647,
103.849464020818,1.36445049642352,Totsville Montessori Preschool,Kindergartens,,,,560340,340 Ang Mo Kio Ave 1 #01-1687,,,,0,0,,,17BE1C479628FD51,20170807175647,
103.91055724291,1.31182051480766,Two By Two Schoolhouse,Kindergartens,,,,425500,Bright Centre 55 Lor L Telok Kurau #03-61,,,,0,0,,,2AC8BE509E0316AB,20170807175647,
103.822962948156,1.30561167116125,Wee Care Kindergarten,Kindergartens,,,,247964,56 Tanglin Road #02-03,,,,0,0,,,D99248D394F6FF53,20170807175647,
103.882409423545,1.31001207672423,White Lodge Kindergarten (East Coast),Kindergartens,,,,399719,102 Guillemard Road #02-01,,,,0,0,,,C1FF22244ACD4C98,20170807175647,
103.768482869178,1.35993291691739,White Lodge Upper Bukit Timah Pte Ltd,Kindergartens,,,,678541,Fuyoung Estate 1 Jalan Siap,,,,0,0,,,3DF4B2A244119B9E,20170807175647,
103.697500885316,1.34303496123374,Zulfa Kindergarten,Kindergartens,,,,640717,717 Jurong West Street 71 #B1-107,,,,0,0,,,1C84BC711E9DE1FC,20170807175647,
103.736662616157,1.38170882938891,Zulfa Kindergarten @ Choa Chu Kang,Kindergartens,,,,680445,445 Choa Chu Kang Avenue 4 #01-307,,,,0,0,,,DF1FE901FCF062B2,20170807175647,
103.940918760798,1.37979336400946,Zulfa Kindergarten @ Pasir Ris,Kindergartens,,,,510626,626 Pasir Ris Drive 3 #01-302,,,,0,0,,,CCD738DAAFB6FA86,20170807175647,
103.819543348008,1.45384518800839,Zulfa Kindergarten @ Sembawang Mart PTE LTD,Kindergartens,,,,750511,511 Canberra Road #02-01,,,,0,0,,,EA43756BE8248AE1,20170807175647,
103.940134980577,1.3548789606832,Darul Ghufran Mosque Kindergarten,Kindergartens,,,,529651,503 Tampines Avenue 5,,,,0,0,,,7039F59B1AA25F74,20170731113650,
103.797294503737,1.30261425454844,Faith Kindergarten,Kindergartens,,,,149604,400 Commonwealth Drive,,,,0,0,,,906B5951A9A99E4C,20170731113650,
103.826249289196,1.35731805296484,P & J Kindergarten,Kindergartens,,,,574141,35 Windsor Park Road Windsor Park,,,,0,0,,,20BE9340DF53094E,20170731113650,
103.96142704228,1.34361881017266,Paper Scissors Stone Montessori Kindergarten,Kindergartens,,,,488306,30 Jalan Pergam,,,,0,0,,,CC4970BAD7347777,20170731113650,
103.785736404321,1.28035247880721,Pasir Panjang Hill Church Kindergarten,Kindergartens,,,,118827,3 Pasir Panjang Hill,,,,0,0,,,DA56436DE447F0B1,20170731113650,
103.875635644583,1.35266364869783,Paya Lebar Methodist Church Covenant Kindergarten,Kindergartens,,,,549954,5 Boundary Road,,,,0,0,,,51D04B7E175D629A,20170731113650,
103.749937136453,1.38261285054884,Al - Khair Mosque Kindergarten,Kindergartens,,,,688847,1 Teck Whye Crescent,,,,0,0,,,D3E62DC5B616FAA6,20170731113650,
103.880381148334,1.30956661239195,Chen Li Kindergarten,Kindergartens,,,,399711,76 Guillemard Road,,,,0,0,,,B66E3E307DB7C088,20170731113650,
103.869823854894,1.34715335910065,Lumiere Montessori House,Kindergartens,,,,357971,64 Wolskel Road,,,,0,0,,,58641E7E3D227758,20170731113650,
103.907471423402,1.31254439742449,PCF SPARKLETOTS PRESCHOOL @ JOO CHIAT Blk 15 (KN),Kindergartens,,,,425611,15 Lorong K Telok Kurau,,,,0,0,,,E63D22F815C5F5A0,20170731113650,
103.779791675159,1.28750746409108,Pearlbank Montessori Kindergarten,Kindergartens,,,,118643,302 Pasir Panjang Road,,,,0,0,,,DFA5F2EE68518ADE,20170731113650,
103.95714981437,1.37125662752551,Pentecost Methodist Church Kindergarten,Kindergartens,,,,519420,4 Pasir Ris Drive 6,,,,0,0,,,164A0E0776D0331A,20170731113650,
103.814594825365,1.32366006296853,Pibos Garden Preschool,Kindergartens,,,,299574,1 Dunearn Close,,,,0,0,,,3BBF7F6CECD01EBD,20170731113650,
103.928839980364,1.34793948345495,Preschool Learning Academy @Temasek Polytechnic,Kindergartens,,,,529757,21 Tampines Avenue 1,,,,0,0,,,8AEE84A2BF3D2673,20170731113650,
103.900452323413,1.31591354480998,Pu Hui Kindergarten,Kindergartens,,,,426603,8 Lorong 102 Changi Road,,,,0,0,,,14061F759D781F9F,20170731113650,
103.772369190035,1.42885252549321,Putra - Putri Kindergarten,Kindergartens,,,,730408,408 Woodlands Street 41,,,,0,0,,,FAF2C82D5AE3D68E,20170731113650,
103.80731736319,1.2950850097925,Queenstown Good Shepherd Kindergarten,Kindergartens,,,,149454,2 Dundee Road,,,,0,0,,,3E0A654EDB41B612,20170731113650,
103.799200223209,1.30627899002475,Queenstown Lutheran Church Kindergarten,Kindergartens,,,,149601,709 Commonwealth Drive,,,,0,0,,,F3046BEDC1AE6235,20170731113650,
103.907760963963,1.30984716216332,Raffles Montessori Kindergarten (Still Road),Kindergartens,,,,425080,105 Lorong Stangee,,,,0,0,,,E61B29518E2F6526,20170731113650,
103.8794987818,1.34372406206842,Ramakrishna Mission Sarada Kindergarten,Kindergartens,,,,539784,179 Bartley Road,,,,0,0,,,4EED89D85A4AC30C,20170731113650,
103.957785395258,1.37836824834282,Riverlife Kindergarten,Kindergartens,,,,509026,6 Loyang Besar Close,,,,0,0,,,C4456E6DB5D9F980,20170731113650,
103.863529975749,1.3586494903718,St. Francis Xavier Kindergarten,Kindergartens,,,,558758,63A Chartwell Drive,,,,0,0,,,8C2202B765340B0E,20170731113650,
103.90078559514,1.30780887803947,St. Hilda's Church Kindergarten,Kindergartens,,,,429740,83 Ceylon Road,,,,0,0,,,A0F03014812281CA,20170731113650,
103.796123267377,1.31286097632096,St. James' Church Kindergarten,Kindergartens,,,,267828,1 Leedon Road,,,,0,0,,,92A4752A3996F487,20170731113650,
103.81225269627,1.30439518800235,St. James' Church Kindergarten (Harding),Kindergartens,,,,249537,29 Harding Road,,,,0,0,,,E3BFC5D28D556A0E,20170731113650,
103.768095690698,1.36780172560453,St. Joseph's Church Kindergarten,Kindergartens,,,,679331,600 Upper Bukit Timah Road,,,,0,0,,,71FF557205AE80A5,20170731113650,
103.881854280652,1.3585780698898,St. Paul's Church Kindergarten,Kindergartens,,,,534682,839 Upper Serangoon Road,,,,0,0,,,C34D0E3DB6112EDC,20170731113650,
103.796786630286,1.3240255402667,Sunshine Kindergarten (Watten),Kindergartens,,,,267211,66 Namly Place,,,,0,0,,,CD95C1C6327C871B,20170731113650,
103.793256122878,1.33879672516072,Swallows And Amazons Kindergarten,Kindergartens,,,,287994,200 Turf Club Road,,,,0,0,,,48B40C39560A7059,20170731113650,
103.86640182277,1.33028062977132,The Ascension Kindergarten,Kindergartens,,,,359338,11 Francis Thomas Drive,,,,0,0,,,D269130E673B017D,20170731113650,
103.814634069955,1.26936979215186,The Capstone Kindergarten,Kindergartens,,,,098716,61 Wishart Road,,,,0,0,,,DAB9B42ABAE20915,20170731113650,
103.844295021527,1.31486729251705,Thomson Road Baptist Kindergarten,Kindergartens,,,,307584,45 Thomson Road,,,,0,0,,,F1A6CA5920771572,20170731113650,
103.846449865961,1.33409621230364,Toa Payoh Methodist Church Kindergarten,Kindergartens,,,,319641,480 Lorong 2 Toa Payoh,,,,0,0,,,4DBD49C1C4B65DEC,20170731113650,
103.880451225959,1.35058736007091,TPBC Kindergarten,Kindergartens,,,,536698,20 Lorong Ah Soo,,,,0,0,,,8905AC51D0FA267A,20170731113650,
103.805684878586,1.29372738718915,True Way Presbyterian Kindergarten,Kindergartens,,,,148947,156B Stirling Road,,,,0,0,,,DF492CA49A8507FB,20170731113650,
103.906370028834,1.30451986897233,Tung Ling Kindergarten,Kindergartens,,,,449274,145 Marine Parade,,,,0,0,,,5A1E4489BDEDEA4A,20170731113650,
103.801672365854,1.3323899228448,White Lodge Bukit Timah Pte Ltd,Kindergartens,,,,288712,39 Linden Drive,,,,0,0,,,5B6F8D06FFDE7963,20170731113650,
103.814673180894,1.29855565716039,White Lodge Kindergarten (Phoenix Park),Kindergartens,,,,247975,310 Tanglin Road,,,,0,0,,,2F1171391A553D9A,20170731113650,
103.971657287248,1.36495701623787,White Lodge Kindergarten (Upper East Coast),Kindergartens,,,,507889,36 Toh Drive,,,,0,0,,,BD129B3C1ACFA756,20170731113650,
103.906924696744,1.30680768113388,Holy Family Kindergarten,Kindergartens,,,,429509,6 Chapel Road,,,,0,0,,,1DB66DF28477C34E,20150818095641,
103.939491392627,1.3141126876478,Holy Grace Kindergarten,Kindergartens,,,,466484,408-B Upper East Coast Road,,,,0,0,,,0F9445D97E13FAE1,20150818095641,
103.882722843112,1.36505333466624,JENIUS Kindergarten,Kindergartens,,,,549783,54 Da Silva Lane,,,,0,0,,,82A45F82584D5C5C,20150818095641,
103.853939829146,1.30717566846635,Kampong Kapor Methodist Church Kindergarten,Kindergartens,,,,208673,1 Kampong Kapor Road,,,,0,0,,,C998B4733144BDE4,20150818095641,
103.927555067688,1.30985532845902,Kampung Siglap Mosque Kindergarten,Kindergartens,,,,449283,451 Marine Parade Road,,,,0,0,,,FC56FB07ADAB57A6,20150818095641,
103.829094844645,1.29661104461593,Kay Poh Road Baptist Kindergarten,Kindergartens,,,,248963,7 Kay Poh Road,,,,0,0,,,9800B882BE371F0D,20150818095641,
103.858317002113,1.31429091533394,Khalsa Kindergarten,Kindergartens,,,,209943,1 Beatty Road,,,,0,0,,,B9A93DF2D87CF970,20150818095641,
103.835334579366,1.36711063092794,Ang Mo Kio Methodist Church Kindergarten,Kindergartens,,,,569383,1 Ang Mo Kio Street 21,,,,0,0,,,B590D86A0B5927B2,20160816140842,
103.953945214966,1.32375594182408,Bedok Methodist Church Kindergarten,Kindergartens,,,,469371,86 Bedok Road,,,,0,0,,,91F92D5A24AF6143,20160816140842,
103.837307018066,1.37468314366736,Bethesda (Ang Mo Kio) Kindergarten,Kindergartens,,,,569898,601 Ang Mo Kio Ave 4,,,,0,0,,,F2AFFB4F65F3009A,20160816140842,
103.934743788099,1.33121916593864,Bethesda (Bedok-Tampines) Kindergarten,Kindergartens,,,,469717,300 Bedok North Avenue 3,,,,0,0,,,354489FD631FC4C1,20160816140842,
103.867447520004,1.34946890184136,Bethesda (Bukit Arang) Kindergarten,Kindergartens,,,,556110,114 Serangoon Avenue 3,,,,0,0,,,F53C7FAFBDC72121,20160816140842,
103.814161011337,1.28188713072966,Bethesda (Depot Walk) Kindergarten,Kindergartens,,,,109590,10 Depot Walk,,,,0,0,,,0CF9D1B0426F28A0,20160816140842,
103.918409416247,1.31680131834791,Bethesda (Katong) Kindergarten,Kindergartens,,,,456929,2 La Salle Street,,,,0,0,,,66E33C280866ABA4,20160816140842,
103.964444239132,1.36794697750271,Bethesda (Pasir Ris) Kindergarten,Kindergartens,,,,518458,11 Pasir Ris Drive 2,,,,0,0,,,0E09732067C53D65,20160816140842,
103.795941517598,1.33589728896884,Blue House International School,Kindergartens,,,,287988,2 Turf Club Road,,,,0,0,,,FC46CA78B97F06DD,20160816140842,
103.863546761853,1.32399443454298,Canaan Church (SCCC) Kindergarten,Kindergartens,,,,328069,84 St. Francis Road,,,,0,0,,,6B718E9E4F286C53,20160816140842,
103.871414421885,1.40252219955127,Chatsworth Kindergarten,Kindergartens,,,,797640,1 Piccadilly Circus,,,,0,0,,,B6C30DE41E8E29ED,20160816140842,
103.80678727934,1.31811008684046,Cherrybrook Kindergarten,Kindergartens,,,,266774,82 Queen's Road,,,,0,0,,,8B99FE3B314E6C2D,20160816140842,
103.798802370379,1.29580365307785,Damien Centre Kindergarten,Kindergartens,,,,149603,1 Commonwealth Drive,,,,0,0,,,F90378859F371196,20160816140842,
103.873968288345,1.35092354410035,Kinderland Kindergarten (Serangoon),Kindergartens,,,,534564,587 Upper Serangoon Road,,,,0,0,,,3C58D642ED39666F,20160816140842,
103.854010727845,1.39049673554115,Kinderland Kindergarten (Yio Chu Kang),Kindergartens,,,,805946,449 Yio Chu Kang Road,,,,0,0,,,8F028C00F57755FE,20160816140842,
103.836491239024,1.36682360705539,PCF SPARKLETOTS PRESCHOOL @ YIO CHU KANG Blk 235 (KN),Kindergartens,,,,560235,235 Ang Mo Kio Avenue 3 #01-1114,,,,0,0,,,42BEBE8531996242,20170807175647,
103.840938206385,1.37914985573633,PCF SPARKLETOTS PRESCHOOL @ YIO CHU KANG Blk 644 (KN),Kindergartens,,,,560644,644 Ang Mo Kio Ave 4 #01-850,,,,0,0,,,382596DD63F1CD60,20170807175647,
103.736754205445,1.3413721498863,PCF SPARKLETOTS PRESCHOOL @ YUHUA Blk 223A (KN),Kindergartens,,,,601223,223A Jurong East Street 21 #01-851,,,,0,0,,,E96563DEA146E28E,20170807175647,
103.739676494265,1.34316585351177,PCF SPARKLETOTS PRESCHOOL @ YUHUA Blk 251 (KN),Kindergartens,,,,600251,251 247 251 Jurong East Street 24 #01-110,,,,0,0,,,2927B7321FDEF68A,20170807175647,
103.730965104849,1.34654968715926,PCF SPARKLETOTS PRESCHOOL @ YUHUA Blk 317 (KN),Kindergartens,,,,600317,317 Jurong East Street 31 #01-14,,,,0,0,,,8358681E7862D544,20170807175647,
103.771212191683,1.38756734655694,PCF SPARKLETOTS PRESCHOOL @ ZHENGHUA Blk 455A (KN),Kindergartens,,,,671455,455A Segar Road #01-01,,,,0,0,,,80F64F02B3A98A75,20170807175647,
103.765543454608,1.38504907109042,PCF SPARKLETOTS PRESCHOOL @ ZHENGHUA Blk 528 (KN),Kindergartens,,,,670528,528 526 532 528 Jelapang Road #01-79,,,,0,0,,,1CF64FC2E7AE6D62,20170807175647,
103.76173746579,1.38585557561127,PCF SPARKLETOTS PRESCHOOL @ ZHENGHUA Blk 620 (KN),Kindergartens,,,,670620,620 Bukit Panjang Ring Road #01-828,,,,0,0,,,32FCE847C2A3FAA7,20170807175647,
103.905318260736,1.30646587746767,Pink Tower Montessori,Kindergartens,,,,423731,252 Tembeling Road #01-07,,,,0,0,,,847C8504A8534099,20170807175647,
103.95836736751,1.35825223842147,Prodigy Preschool,Kindergartens,,,,522497,497C Tampines Street 45 #01-54,,,,0,0,,,AF6A6BE36B63CDB4,20170807175647,
103.841921096861,1.24775861864545,Quayside Isle Preparatory School,Kindergartens,,,,098375,31 Ocean Way #01-17,,,,0,0,,,645F098FA123B058,20170807175647,
103.88144706123,1.31522654301622,Raffles Montessori Kindergarten (Aljunied),Kindergartens,,,,388375,Fansida Building 46 Lorong 23 Geylang #04-46C,,,,0,0,,,6392BA18C86026F2,20170807175647,
103.807350988285,1.29130379868494,Rainbow Cove Montessori,Kindergartens,,,,159948,Alexis 354 Alexandra Road,,,,0,0,,,7F88C251815FDDB2,20170807175647,
103.913194648481,1.32521089117417,LittleSparks Montessori Kindergarten @ Kembangan,Kindergartens,,,,419145,103 Jalan Kembangan,,,,0,0,,,1EB669B09492B86F,20170412114823,
103.901121106818,1.39170993991395,Mahad Al-Nasry @ Sengkang kindergarten,Kindergartens,,,,546646,415 Punggol Road,,,,0,0,,,C0982FE93743822D,20170412114823,
103.790714798526,1.33217019143294,Montessori Children's House Kindergarten,Kindergartens,,,,278685,886 Old Holland Road,,,,0,0,,,C06BDC6FE9F22691,20170412114823,
103.913935302828,1.3097605498769,NAFA Arts Kindergarten,Kindergartens,,,,429064,511 East Coast Road,,,,0,0,,,13131B47BD27F7B2,20170412114823,
103.845605899785,1.3153020425121,NAFA Arts Kindergarten (Derbyshire),Kindergartens,,,,309458,2 Derbyshire Road,,,,0,0,,,2249426E81ED883A,20170412114823,
103.805567269119,1.31805748646225,Nanyang Kindergarten,Kindergartens,,,,268155,118 King's Road,,,,0,0,,,E331C265679DD3FA,20170412114823,
103.897684886165,1.37415859631805,Nativity Church Kindergarten,Kindergartens,,,,538791,98 Hougang Avenue 8,,,,0,0,,,8170B7B5DDDB4AD8,20170412114823,
103.777376782722,1.44503088443682,New Life Kindergarten,Kindergartens,,,,739147,10 Marsiling Lane,,,,0,0,,,E7EE0B0CF38CED0C,20170412114823,
103.720821831747,1.34096532016758,Jurong Calvary Kindergarten,Kindergartens,,,,618653,101 Yuan Ching Road,,,,0,0,,,AE0946A8C1C3DDDD,20150818104441,
103.720821831747,1.34096532016758,Jurong Christian Church Kindergarten,Kindergartens,,,,618653,101 Yuan Ching Road,,,,0,0,,,AE0946A889205C89,20150818104441,
103.865899487598,1.32441878302634,Kim Keat Christian Church Kindergarten,Kindergartens,,,,339843,11 Beng Wan Road,,,,0,0,,,032FE782CADBA23E,20150818104441,
103.881002098853,1.3268535198268,Magdalene's Kindergarten,Kindergartens,,,,387621,1 Sallim Road,,,,0,0,,,E6CEF11B2D59A14D,20150818104441,
103.8569832606,1.34063847558185,Marymount Kindergarten,Kindergartens,,,,319253,9 Toa Payoh Lorong 8,,,,0,0,,,46D3134B710D0BE0,20150818104441,
103.840838756338,1.3141001554234,Newton Kindergarten,Kindergartens,,,,307995,16 Newton Road,,,,0,0,,,DD29609C8B30BE80,20150818104441,
103.771073229077,1.31248504076742,Darussalam Mosque Kindergarten,Kindergartens,,,,129579,3002 Commonwealth Avenue West,,,,0,0,,,5920BFEAA9081E67,20150818095641,
103.744054352192,1.3944714492521,Choa Chu Kang Bible Centre Kindergarten,Kindergartens,,,,689284,10 Choa Chu Kang Street 52,,,,0,0,,,FA656B05835AE7FB,20150818104441,
103.926353893911,1.32698962842185,Al - Ansar Mosque Kindergarten,Kindergartens,,,,469751,155 Bedok North Avenue 1,,,,0,0,,,EE51B6704F7CC964,20150818104441,
103.964110392647,1.37099780380039,Al - Istighfar Mosque Kindergarten,Kindergartens,,,,518239,2 Pasir Ris Walk,,,,0,0,,,807253ED7F7FED4D,20150818104441,
103.771877540836,1.44072763031705,An - Nur Mosque Kindergarten,Kindergartens,,,,739983,6 Admiralty Road,,,,0,0,,,82F0F9903BCC543D,20150818104441,
103.909327829516,1.30816203069997,Dynamic World Montessori Preschool,Kindergartens,,,,428951,292 East Coast Road,,,,0,0,,,6CFD42090B4B5139,20150818104441,
103.888926443577,1.30277936290546,Etonhouse International Research Preschool,Kindergartens,,,,436736,716 Mountbatten Road,,,,0,0,,,170A70600F7C39AE,20150818104441,
103.851699021775,1.30894458080814,Foochow Methodist Church Kindergarten,Kindergartens,,,,218577,90 Race Course Road,,,,0,0,,,50024E261C010C97,20150818104441,
103.746228330603,1.32176985860034,Galilee Kindergarten,Kindergartens,,,,609338,202 Pandan Gardens,,,,0,0,,,36E40A8FB69A6B3A,20150818104441,
103.93255374937,1.31121731083225,Good Shepherd Convent Kindergarten,Kindergartens,,,,456650,25 Nallur Road,,,,0,0,,,A9D464C68E086F6A,20150818104441,
103.881861642284,1.34425558043427,Bethany Kindergarten,Kindergartens,,,,534934,301 Upper Paya Lebar Road,,,,0,0,,,E7A640B1E37B7943,20150818095641,
103.910032021758,1.32064873582389,Bethesda Chapel Kindergarten,Kindergartens,,,,416913,27 Lorong Melayu,,,,0,0,,,6ED88E87AED565A8,20150818095641,
103.886426500273,1.39222021717916,Sengkang Methodist Children Centre,Kindergartens,,,,545056,31 Anchorvale Road,,,,0,0,,,DD096B4837A64390,20170731113650,
103.738118521005,1.33557404229418,Seventh-day Adventist Kindergarten,Kindergartens,,,,609648,90 Jurong East Street 13,,,,0,0,,,9334B7F96606CED0,20170731113650,
103.958174536044,1.37843836745599,Shalom Kindergarten,Kindergartens,,,,509025,4 Loyang Besar Close,,,,0,0,,,1C071F50B36CC5A6,20170731113650,
103.938413828042,1.31563670299896,Singapore Hokkien Huay Kuan Pre-School,Kindergartens,,,,466781,5 Sennett Road,,,,0,0,,,121655B3CED11E73,20170731113650,
103.943349420225,1.34463290767423,Soka Kindergarten,Kindergartens,,,,528888,7 Tampines Street 92,,,,0,0,,,A244FDEACC868144,20170731113650,
103.901675474368,1.39188939022534,St. Anne's Church Kindergarten,Kindergartens,,,,548593,66 Sengkang East Way,,,,0,0,,,47D498CD11E46337,20170731113650,
103.710984489611,1.34790195968358,St. Francis Of Assisi Kindergarten (Boon Lay),Kindergartens,,,,649964,200 Boon Lay Avenue,,,,0,0,,,8FD3FB8782F23837,20170731113650,
103.716391794068,1.35135367782896,St. Francis Of Assisi Kindergarten (Jurong West),Kindergartens,,,,649368,47 Jurong West Street 42,,,,0,0,,,1ECC73E3421F4B03,20170731113650,
103.78625956674,1.28013030241477,White Lodge West Coast Pte Ltd,Kindergartens,,,,118141,9 South Buona Vista Road,,,,0,0,,,DDCEEDC3F17D611F,20170731113650,
103.876359606877,1.36799818735337,Yio Chu Kang Chapel Kindergarten,Kindergartens,,,,545671,242 Yio Chu Kang Road,,,,0,0,,,533145D47E5D6599,20170731113650,
103.854878355166,1.34709066407747,Zion Bishan Kindergarten,Kindergartens,,,,579792,4 Bishan Street 13,,,,0,0,,,E7216661941C40A5,20170731113650,
103.862159115226,1.36733995815114,Zion Kindergarten,Kindergartens,,,,555108,3 & 5 Tavistock Avenue,,,,0,0,,,81372699E6DFF235,20170731113650,
103.814545965302,1.45475507081566,Hope Community Kindergarten (Sembawang),Kindergartens,,,,757614,55 Sembawang Drive,,,,0,0,,,77FFDC645B7F47B6,20170412114823,
103.913233511184,1.31262553563135,Kits4Kids Kindergarten,Kindergartens,,,,425542,107 Lorong L Telok Kurau,,,,0,0,,,5EE01FD62ACCE048,20160816140842,
103.753612207902,1.37959584881536,Methodist Church Of The Incarnation (MCI) Kindergarten,Kindergartens,,,,688798,31 Teck Whye Lane,,,,0,0,,,EEE6B777C8A6CB78,20160816140842,
103.890672255534,1.29979211226313,MFC Kindergarten (Broadrick Road),Kindergartens,,,,439476,11 Broadrick Road,,,,0,0,,,017E4D242B526316,20160816140842,
103.841293358723,1.31802807839923,MFC Kindergarten (Newton),Kindergartens,,,,307970,43 Newton Road,,,,0,0,,,A1FE61955B4A1E8A,20160816140842,
103.741421891846,1.33921643710444,Al - Mukminin Mosque Kindergarten,Kindergartens,,,,609603,271 Jurong East Street 21,,,,0,0,,,852FD139F7CD1DAB,20160816140842,
103.845904790886,1.37052179738258,Al - Muttaqin Mosque Kindergarten,Kindergartens,,,,569844,5140 Ang Mo Kio Avenue 6,,,,0,0,,,9C294EDA5603FABF,20160816140842,
103.756001926043,1.35166028555847,Ar - Raudhah Mosque Kindergarten,Kindergartens,,,,659919,30 Bukit Batok East Avenue 2,,,,0,0,,,90ECA0FA82E5F507,20170412114823,
103.775707050841,1.3446214182518,Arise Kindergarten,Kindergartens,,,,589240,2B Hindhede Road,,,,0,0,,,95FACB7F9A2128E0,20170412114823,
103.719566221792,1.33544839136592,Assyakirin Mosque Kindergarten,Kindergartens,,,,618617,550 Yung An Road,,,,0,0,,,844F25DFA77BE8D8,20170412114823,
103.746705227118,1.37731135176486,CGM Kindergarten,Kindergartens,,,,689457,172 Choa Chu Kang Avenue 1,,,,0,0,,,06936593E2B3E35A,20170412114823,
103.975187525187,1.36613817677263,Changi Baptist Church Kindergarten,Kindergartens,,,,507692,1069 Upper Changi Road North,,,,0,0,,,5CA68922BE01E11E,20170412114823,
103.949335256992,1.34884145096827,Church Of Holy Trinity Kindergarten,Kindergartens,,,,529455,20 Tampines Street 11,,,,0,0,,,DB568AF778893AF8,20170412114823,
103.834340337691,1.43686613993781,Darul Makmur Mosque Kindergarten,Kindergartens,,,,769099,950 Yishun Avenue 2,,,,0,0,,,721276C4E26A2A2D,20170412114823,
103.825619959754,1.44124434365518,Edelweiss Kindergarten Sembawang Presbyterian Church,Kindergartens,,,,768443,10B Jalan Jeruju,,,,0,0,,,27B0A43B4205649D,20170412114823,
103.892551072653,1.36092930259561,En-Naeem Mosque Kindergarten,Kindergartens,,,,535136,120 Tampines Road,,,,0,0,,,649E37FD697E896A,20170412114823,
103.791761372628,1.43949657744472,Evangel Kindergarten,Kindergartens,,,,738488,1 Woodlands Street 83,,,,0,0,,,EBA89A1F2C023C0C,20170412114823,
103.738170835279,1.32166369627747,Hasanah Mosque Kindergarten,Kindergartens,,,,608878,492 Teban Gardens Road,,,,0,0,,,982650EF53A42C4F,20170412114823,
103.863907555827,1.38910776126794,Brain Buttons Kindergarten,Kindergartens,,,,805939,357 Yio Chu Kang Road,,,,0,0,,,89167F843B279C17,20150818095641,
103.796775652685,1.32408511239842,Buttercups Montessori Kindergarten,Kindergartens,,,,267214,68 Namly Place,,,,0,0,,,7AD94AAF773D64B9,20150818095641,
103.874151326998,1.33235355123021,Calvary Baptist Kindergarten,Kindergartens,,,,347592,48 Wan Tho Avenue,,,,0,0,,,24A3D49C09DBFF21,20150818095641,
103.745983719361,1.32121263808532,Calvary Pandan Kindergarten,Kindergartens,,,,609337,201 Pandan Gardens,,,,0,0,,,00A6DFE2BB012B92,20150818095641,
103.764302215066,1.34556066138903,Canossian Convent Kindergarten,Kindergartens,,,,598454,100 Jalan Merbok,,,,0,0,,,D2EA74E51180D952,20150818095641,
103.698883758034,1.34938162523075,Centre of New Life Kindergarten,Kindergartens,,,,649151,5 Jurong West Street 74,,,,0,0,,,E3C853A6B6B501E4,20150818095641,
103.904763645634,1.3123142048499,Children's Vineyard Kindergarten,Kindergartens,,,,427032,91 Koon Seng Road,,,,0,0,,,C1D480F60BCC2862,20150818095641,
103.835938248427,1.28575141273828,Chinese Kindergarten,Kindergartens,,,,169053,256 Outram Road,,,,0,0,,,F7662725ECF0D25B,20150818095641,
103.829090064275,1.30152876609375,Little Hands Montessori Kindergarten,Kindergartens,,,,238565,2A Paterson Hill,,,,0,0,,,0EB15D8C113C47A0,20150818095641,
103.811846496935,1.31973695039332,Little Oaks Montessori Kindergarten,Kindergartens,,,,259226,98 Farrer Road,,,,0,0,,,53D44BB3471B6F12,20150818095641,
103.829090064275,1.30152876609375,Little Raindrops Montessori Pre-School,Kindergartens,,,,238565,2A Paterson Hill,,,,0,0,,,0EB15D8CCC25003D,20150818095641,
103.838418632965,1.31888012591039,Little Woods Montessori Preschool,Kindergartens,,,,309166,45 Gentle Road,,,,0,0,,,1204D8A770155532,20150818095641,
103.808308546941,1.30885963374346,Maris Stella Kindergarten,Kindergartens,,,,258851,49B Holland Road,,,,0,0,,,893DAE75D5C99DBD,20150818095641,
103.929290143687,1.3114160488254,Modern Montessori Kindergarten,Kindergartens,,,,457037,12 Kee Sun Avenue,,,,0,0,,,0C7ADBB8DCD26872,20150818095641,
103.915442440453,1.32303429777917,Muhammadiyah Kindergarten,Kindergartens,,,,419006,66 Jalan Lapang,,,,0,0,,,0591DFDAA48EA50C,20150818095641,
103.800952025867,1.29813057941032,Mujahidin Mosque Kindergarten,Kindergartens,,,,148952,590 Stirling Road,,,,0,0,,,150E6AA0A16EE7DB,20150818095641,
103.832183445825,1.37837963605108,Agape Montessori House Kindergarten,Kindergartens,,,,574756,11 Thomson Hills Drive,,,,0,0,,,60FFF811DBBAE1BE,20150818095641,
103.772732863517,1.37814088347161,Al - Iman Mosque Kindergarten,Kindergartens,,,,679943,10 Bukit Panjang Ring Road,,,,0,0,,,EA156BE09249BA5A,20150818095641,
103.875626646005,1.36920169648941,Al - Istiqamah Mosque Kindergarten,Kindergartens,,,,555876,2 Serangoon North Avenue 2,,,,0,0,,,D994F0CAAE7762CD,20150818095641,
103.938106251951,1.3211381180275,Bedok Lutheran Church Kindergarten,Kindergartens,,,,469315,485 Bedok South Avenue 2,,,,0,0,,,6D0BA923CB11858A,20150818095641,
103.86424921465,1.32389412547532,Elim Kindergarten,Kindergartens,,,,328182,1079 Serangoon Road,,,,0,0,,,968D31F5D20807D4,20150818095641,
103.837950235906,1.31594491089578,Far Eastern Kindergarten,Kindergartens,,,,309063,9A Gilstead Road,,,,0,0,,,2F1ADF1644155C79,20150818095641,
103.775479091885,1.33828864074072,Glory Kindergarten,Kindergartens,,,,597611,11 Pei Wah Avenue,,,,0,0,,,8F438D783641D0CF,20150818095641,
